{
  "type": "FeatureCollection",
  "features": [
    {
      "type": "Feature",
      "geometry": {
        "type": "LineString",
        "coordinates": [
          [
            16.59950136708861,
            49.184399443037975
          ],
          [
            16.60290972151899,
            49.187244265822784
          ],
          [
            16.60290972151899,
            49.19008908860759
          ],
          [
            16.60290972151899,
            49.19293391139241
          ],
          [
            16.60290972151899,
            49.19577873417722
          ],
          [
            16.606318075949368,
            49.198623556962026
          ],
          [
            16.606318075949368,
            49.201468379746835
          ]
        ]
      },
      "properties": {
        "route_id": 1,
        "name": "Bakalovo nábřeží 8 → Home (safe)",
        "type": "safe",
        "length_m": 2068.8,
        "hazard_count": 0,
        "cool_count": 0,
        "risk_score": 0,
        "shade_score": 0
      }
    },
    {
      "type": "Feature",
      "geometry": {
        "type": "LineString",
        "coordinates": [
          [
            16.59950136708861,
            49.184399443037975
          ],
          [
            16.60290972151899,
            49.187244265822784
          ],
          [
            16.606318075949368,
            49.19008908860759
          ],
          [
            16.606318075949368,
            49.19293391139241
          ],
          [
            16.60290972151899,
            49.19577873417722
          ],
          [
            16.606318075949368,
            49.198623556962026
          ],
          [
            16.606318075949368,
            49.201468379746835
          ]
        ]
      },
      "properties": {
        "route_id": 2,
        "name": "Bakalovo nábřeží 8 → Home (cool)",
        "type": "cool",
        "length_m": 2239.7,
        "hazard_count": 0,
        "cool_count": 1,
        "risk_score": 0,
        "shade_score": 1
      }
    },
    {
      "type": "Feature",
      "geometry": {
        "type": "LineString",
        "coordinates": [
          [
            16.61995149367089,
            49.19293391139241
          ],
          [
            16.623359848101266,
            49.19577873417722
          ],
          [
            16.626768202531647,
            49.19577873417722
          ],
          [
            16.630176556962027,
            49.19577873417722
          ],
          [
            16.633584911392408,
            49.198623556962026
          ],
          [
            16.633584911392408,
            49.201468379746835
          ],
          [
            16.630176556962027,
            49.204313202531644
          ],
          [
            16.626768202531647,
            49.20715802531646
          ],
          [
            16.623359848101266,
            49.20715802531646
          ],
          [
            16.61995149367089,
            49.20715802531646
          ],
          [
            16.61654313924051,
            49.204313202531644
          ],
          [
            16.61313478481013,
            49.204313202531644
          ],
          [
            16.609726430379748,
            49.204313202531644
          ],
          [
            16.606318075949368,
            49.201468379746835
          ]
        ]
      },
      "properties": {
        "route_id": 3,
        "name": "Křenová 21 → Home (safe)",
        "type": "safe",
        "length_m": 4212.5,
        "hazard_count": 0,
        "cool_count": 0,
        "risk_score": 0,
        "shade_score": 0
      }
    },
    {
      "type": "Feature",
      "geometry": {
        "type": "LineString",
        "coordinates": [
          [
            16.61995149367089,
            49.19293391139241
          ],
          [
            16.623359848101266,
            49.19577873417722
          ],
          [
            16.626768202531647,
            49.19577873417722
          ],
          [
            16.630176556962027,
            49.19577873417722
          ],
          [
            16.633584911392408,
            49.198623556962026
          ],
          [
            16.633584911392408,
            49.201468379746835
          ],
          [
            16.630176556962027,
            49.204313202531644
          ],
          [
            16.626768202531647,
            49.20715802531646
          ],
          [
            16.623359848101266,
            49.20715802531646
          ],
          [
            16.61995149367089,
            49.20715802531646
          ],
          [
            16.61654313924051,
            49.204313202531644
          ],
          [
            16.61313478481013,
            49.204313202531644
          ],
          [
            16.609726430379748,
            49.204313202531644
          ],
          [
            16.606318075949368,
            49.201468379746835
          ]
        ]
      },
      "properties": {
        "route_id": 4,
        "name": "Křenová 21 → Home (cool)",
        "type": "cool",
        "length_m": 4212.5,
        "hazard_count": 0,
        "cool_count": 0,
        "risk_score": 0,
        "shade_score": 0
      }
    },
    {
      "type": "Feature",
      "geometry": {
        "type": "LineString",
        "coordinates": [
          [
            16.623359848101266,
            49.218537316455695
          ],
          [
            16.61995149367089,
            49.215692493670886
          ],
          [
            16.61654313924051,
            49.21284767088608
          ],
          [
            16.61313478481013,
            49.21000284810127
          ],
          [
            16.609726430379748,
            49.20715802531646
          ],
          [
            16.606318075949368,
            49.204313202531644
          ],
          [
            16.606318075949368,
            49.201468379746835
          ]
        ]
      },
      "properties": {
        "route_id": 5,
        "name": "Janouškova 2 → Home (safe)",
        "type": "safe",
        "length_m": 2324.8,
        "hazard_count": 0,
        "cool_count": 1,
        "risk_score": 0,
        "shade_score": 1
      }
    },
    {
      "type": "Feature",
      "geometry": {
        "type": "LineString",
        "coordinates": [
          [
            16.623359848101266,
            49.218537316455695
          ],
          [
            16.61995149367089,
            49.215692493670886
          ],
          [
            16.61654313924051,
            49.21284767088608
          ],
          [
            16.61313478481013,
            49.21000284810127
          ],
          [
            16.609726430379748,
            49.20715802531646
          ],
          [
            16.606318075949368,
            49.204313202531644
          ],
          [
            16.606318075949368,
            49.201468379746835
          ]
        ]
      },
      "properties": {
        "route_id": 6,
        "name": "Janouškova 2 → Home (cool)",
        "type": "cool",
        "length_m": 2324.8,
        "hazard_count": 0,
        "cool_count": 1,
        "risk_score": 0,
        "shade_score": 1
      }
    },
    {
      "type": "Feature",
      "geometry": {
        "type": "LineString",
        "coordinates": [
          [
            16.660851746835444,
            49.204313202531644
          ],
          [
            16.657443392405064,
            49.204313202531644
          ],
          [
            16.654035037974687,
            49.204313202531644
          ],
          [
            16.650626683544306,
            49.204313202531644
          ],
          [
            16.647218329113926,
            49.204313202531644
          ],
          [
            16.643809974683546,
            49.204313202531644
          ],
          [
            16.640401620253165,
            49.204313202531644
          ],
          [
            16.636993265822788,
            49.204313202531644
          ],
          [
            16.633584911392408,
            49.204313202531644
          ],
          [
            16.630176556962027,
            49.204313202531644
          ],
          [
            16.626768202531647,
            49.20715802531646
          ],
          [
            16.623359848101266,
            49.20715802531646
          ],
          [
            16.61995149367089,
            49.20715802531646
          ],
          [
            16.61654313924051,
            49.204313202531644
          ],
          [
            16.61313478481013,
            49.204313202531644
          ],
          [
            16.609726430379748,
            49.204313202531644
          ],
          [
            16.606318075949368,
            49.201468379746835
          ]
        ]
      },
      "properties": {
        "route_id": 7,
        "name": "Mutěnická 23 → Home (safe)",
        "type": "safe",
        "length_m": 4424.2,
        "hazard_count": 0,
        "cool_count": 0,
        "risk_score": 0,
        "shade_score": 0
      }
    },
    {
      "type": "Feature",
      "geometry": {
        "type": "LineString",
        "coordinates": [
          [
            16.660851746835444,
            49.204313202531644
          ],
          [
            16.657443392405064,
            49.204313202531644
          ],
          [
            16.654035037974687,
            49.204313202531644
          ],
          [
            16.650626683544306,
            49.204313202531644
          ],
          [
            16.647218329113926,
            49.204313202531644
          ],
          [
            16.643809974683546,
            49.204313202531644
          ],
          [
            16.640401620253165,
            49.204313202531644
          ],
          [
            16.636993265822788,
            49.204313202531644
          ],
          [
            16.633584911392408,
            49.204313202531644
          ],
          [
            16.630176556962027,
            49.204313202531644
          ],
          [
            16.626768202531647,
            49.20715802531646
          ],
          [
            16.623359848101266,
            49.20715802531646
          ],
          [
            16.61995149367089,
            49.20715802531646
          ],
          [
            16.61654313924051,
            49.204313202531644
          ],
          [
            16.61313478481013,
            49.204313202531644
          ],
          [
            16.609726430379748,
            49.204313202531644
          ],
          [
            16.606318075949368,
            49.201468379746835
          ]
        ]
      },
      "properties": {
        "route_id": 8,
        "name": "Mutěnická 23 → Home (cool)",
        "type": "cool",
        "length_m": 4424.2,
        "hazard_count": 0,
        "cool_count": 0,
        "risk_score": 0,
        "shade_score": 0
      }
    },
    {
      "type": "Feature",
      "geometry": {
        "type": "LineString",
        "coordinates": [
          [
            16.657443392405064,
            49.19008908860759
          ],
          [
            16.654035037974687,
            49.19008908860759
          ],
          [
            16.650626683544306,
            49.19008908860759
          ],
          [
            16.647218329113926,
            49.19008908860759
          ],
          [
            16.643809974683546,
            49.19008908860759
          ],
          [
            16.640401620253165,
            49.19293391139241
          ],
          [
            16.636993265822788,
            49.19577873417722
          ],
          [
            16.633584911392408,
            49.198623556962026
          ],
          [
            16.633584911392408,
            49.201468379746835
          ],
          [
            16.630176556962027,
            49.204313202531644
          ],
          [
            16.626768202531647,
            49.20715802531646
          ],
          [
            16.623359848101266,
            49.20715802531646
          ],
          [
            16.61995149367089,
            49.20715802531646
          ],
          [
            16.61654313924051,
            49.20715802531646
          ],
          [
            16.61313478481013,
            49.204313202531644
          ],
          [
            16.609726430379748,
            49.204313202531644
          ],
          [
            16.606318075949368,
            49.201468379746835
          ]
        ]
      },
      "properties": {
        "route_id": 9,
        "name": "Krásného 24 → Home (safe)",
        "type": "safe",
        "length_m": 5109.7,
        "hazard_count": 0,
        "cool_count": 0,
        "risk_score": 0,
        "shade_score": 0
      }
    },
    {
      "type": "Feature",
      "geometry": {
        "type": "LineString",
        "coordinates": [
          [
            16.657443392405064,
            49.19008908860759
          ],
          [
            16.654035037974687,
            49.19008908860759
          ],
          [
            16.650626683544306,
            49.19008908860759
          ],
          [
            16.647218329113926,
            49.19008908860759
          ],
          [
            16.643809974683546,
            49.19008908860759
          ],
          [
            16.640401620253165,
            49.19293391139241
          ],
          [
            16.636993265822788,
            49.19577873417722
          ],
          [
            16.633584911392408,
            49.198623556962026
          ],
          [
            16.633584911392408,
            49.201468379746835
          ],
          [
            16.630176556962027,
            49.204313202531644
          ],
          [
            16.626768202531647,
            49.20715802531646
          ],
          [
            16.623359848101266,
            49.20715802531646
          ],
          [
            16.61995149367089,
            49.20715802531646
          ],
          [
            16.61654313924051,
            49.20715802531646
          ],
          [
            16.61313478481013,
            49.204313202531644
          ],
          [
            16.609726430379748,
            49.204313202531644
          ],
          [
            16.606318075949368,
            49.201468379746835
          ]
        ]
      },
      "properties": {
        "route_id": 10,
        "name": "Krásného 24 → Home (cool)",
        "type": "cool",
        "length_m": 5109.7,
        "hazard_count": 0,
        "cool_count": 0,
        "risk_score": 0,
        "shade_score": 0
      }
    },
    {
      "type": "Feature",
      "geometry": {
        "type": "LineString",
        "coordinates": [
          [
            16.487025670886077,
            49.21000284810127
          ],
          [
            16.490434025316457,
            49.21000284810127
          ],
          [
            16.493842379746837,
            49.21000284810127
          ],
          [
            16.497250734177214,
            49.21000284810127
          ],
          [
            16.500659088607595,
            49.21000284810127
          ],
          [
            16.504067443037975,
            49.21000284810127
          ],
          [
            16.507475797468356,
            49.21000284810127
          ],
          [
            16.510884151898736,
            49.21000284810127
          ],
          [
            16.514292506329113,
            49.21000284810127
          ],
          [
            16.517700860759494,
            49.21000284810127
          ],
          [
            16.521109215189874,
            49.21000284810127
          ],
          [
            16.524517569620254,
            49.21000284810127
          ],
          [
            16.527925924050635,
            49.21000284810127
          ],
          [
            16.531334278481012,
            49.21000284810127
          ],
          [
            16.534742632911392,
            49.21000284810127
          ],
          [
            16.538150987341773,
            49.21000284810127
          ],
          [
            16.541559341772153,
            49.21000284810127
          ],
          [
            16.544967696202534,
            49.21000284810127
          ],
          [
            16.548376050632914,
            49.21000284810127
          ],
          [
            16.55178440506329,
            49.21000284810127
          ],
          [
            16.55519275949367,
            49.21000284810127
          ],
          [
            16.558601113924052,
            49.21000284810127
          ],
          [
            16.562009468354432,
            49.21000284810127
          ],
          [
            16.565417822784813,
            49.21000284810127
          ],
          [
            16.56882617721519,
            49.21000284810127
          ],
          [
            16.57223453164557,
            49.21000284810127
          ],
          [
            16.57564288607595,
            49.21000284810127
          ],
          [
            16.57905124050633,
            49.21000284810127
          ],
          [
            16.58245959493671,
            49.20715802531646
          ],
          [
            16.58586794936709,
            49.204313202531644
          ],
          [
            16.58586794936709,
            49.201468379746835
          ],
          [
            16.58927630379747,
            49.198623556962026
          ],
          [
            16.59268465822785,
            49.198623556962026
          ],
          [
            16.59609301265823,
            49.198623556962026
          ],
          [
            16.59950136708861,
            49.198623556962026
          ],
          [
            16.60290972151899,
            49.201468379746835
          ],
          [
            16.606318075949368,
            49.201468379746835
          ]
        ]
      },
      "properties": {
        "route_id": 11,
        "name": "Otevřená 20a (1.–5. ročník) → Home (safe)",
        "type": "safe",
        "length_m": 9598.8,
        "hazard_count": 0,
        "cool_count": 0,
        "risk_score": 0,
        "shade_score": 0
      }
    },
    {
      "type": "Feature",
      "geometry": {
        "type": "LineString",
        "coordinates": [
          [
            16.487025670886077,
            49.21000284810127
          ],
          [
            16.490434025316457,
            49.21000284810127
          ],
          [
            16.493842379746837,
            49.21000284810127
          ],
          [
            16.497250734177214,
            49.21000284810127
          ],
          [
            16.500659088607595,
            49.21000284810127
          ],
          [
            16.504067443037975,
            49.21000284810127
          ],
          [
            16.507475797468356,
            49.21000284810127
          ],
          [
            16.510884151898736,
            49.21000284810127
          ],
          [
            16.514292506329113,
            49.21000284810127
          ],
          [
            16.517700860759494,
            49.21000284810127
          ],
          [
            16.521109215189874,
            49.21000284810127
          ],
          [
            16.524517569620254,
            49.21000284810127
          ],
          [
            16.527925924050635,
            49.21000284810127
          ],
          [
            16.531334278481012,
            49.21000284810127
          ],
          [
            16.534742632911392,
            49.21000284810127
          ],
          [
            16.538150987341773,
            49.21000284810127
          ],
          [
            16.541559341772153,
            49.21000284810127
          ],
          [
            16.544967696202534,
            49.21000284810127
          ],
          [
            16.548376050632914,
            49.21000284810127
          ],
          [
            16.55178440506329,
            49.21000284810127
          ],
          [
            16.55519275949367,
            49.21000284810127
          ],
          [
            16.558601113924052,
            49.21000284810127
          ],
          [
            16.562009468354432,
            49.21000284810127
          ],
          [
            16.565417822784813,
            49.21000284810127
          ],
          [
            16.56882617721519,
            49.21000284810127
          ],
          [
            16.57223453164557,
            49.21000284810127
          ],
          [
            16.57564288607595,
            49.21000284810127
          ],
          [
            16.57905124050633,
            49.21000284810127
          ],
          [
            16.58245959493671,
            49.20715802531646
          ],
          [
            16.58586794936709,
            49.204313202531644
          ],
          [
            16.58586794936709,
            49.201468379746835
          ],
          [
            16.58927630379747,
            49.198623556962026
          ],
          [
            16.59268465822785,
            49.198623556962026
          ],
          [
            16.59609301265823,
            49.198623556962026
          ],
          [
            16.59950136708861,
            49.198623556962026
          ],
          [
            16.60290972151899,
            49.201468379746835
          ],
          [
            16.606318075949368,
            49.201468379746835
          ]
        ]
      },
      "properties": {
        "route_id": 12,
        "name": "Otevřená 20a (1.–5. ročník) → Home (cool)",
        "type": "cool",
        "length_m": 9598.8,
        "hazard_count": 0,
        "cool_count": 0,
        "risk_score": 0,
        "shade_score": 0
      }
    },
    {
      "type": "Feature",
      "geometry": {
        "type": "LineString",
        "coordinates": [
          [
            16.59268465822785,
            49.17870979746836
          ],
          [
            16.59609301265823,
            49.181554620253166
          ],
          [
            16.59950136708861,
            49.184399443037975
          ],
          [
            16.60290972151899,
            49.187244265822784
          ],
          [
            16.60290972151899,
            49.19008908860759
          ],
          [
            16.60290972151899,
            49.19293391139241
          ],
          [
            16.60290972151899,
            49.19577873417722
          ],
          [
            16.606318075949368,
            49.198623556962026
          ],
          [
            16.606318075949368,
            49.201468379746835
          ]
        ]
      },
      "properties": {
        "route_id": 13,
        "name": "Horní 16 → Home (safe)",
        "type": "safe",
        "length_m": 2872.4,
        "hazard_count": 0,
        "cool_count": 0,
        "risk_score": 0,
        "shade_score": 0
      }
    },
    {
      "type": "Feature",
      "geometry": {
        "type": "LineString",
        "coordinates": [
          [
            16.59268465822785,
            49.17870979746836
          ],
          [
            16.59609301265823,
            49.181554620253166
          ],
          [
            16.59950136708861,
            49.184399443037975
          ],
          [
            16.60290972151899,
            49.187244265822784
          ],
          [
            16.606318075949368,
            49.19008908860759
          ],
          [
            16.606318075949368,
            49.19293391139241
          ],
          [
            16.60290972151899,
            49.19577873417722
          ],
          [
            16.606318075949368,
            49.198623556962026
          ],
          [
            16.606318075949368,
            49.201468379746835
          ]
        ]
      },
      "properties": {
        "route_id": 14,
        "name": "Horní 16 → Home (cool)",
        "type": "cool",
        "length_m": 3043.3,
        "hazard_count": 0,
        "cool_count": 1,
        "risk_score": 0,
        "shade_score": 1
      }
    },
    {
      "type": "Feature",
      "geometry": {
        "type": "LineString",
        "coordinates": [
          [
            16.59950136708861,
            49.20715802531646
          ],
          [
            16.59950136708861,
            49.204313202531644
          ],
          [
            16.60290972151899,
            49.201468379746835
          ],
          [
            16.606318075949368,
            49.201468379746835
          ]
        ]
      },
      "properties": {
        "route_id": 15,
        "name": "Kotlářská 4 → Home (safe)",
        "type": "safe",
        "length_m": 965.7,
        "hazard_count": 0,
        "cool_count": 0,
        "risk_score": 0,
        "shade_score": 0
      }
    },
    {
      "type": "Feature",
      "geometry": {
        "type": "LineString",
        "coordinates": [
          [
            16.59950136708861,
            49.20715802531646
          ],
          [
            16.59950136708861,
            49.204313202531644
          ],
          [
            16.60290972151899,
            49.201468379746835
          ],
          [
            16.606318075949368,
            49.201468379746835
          ]
        ]
      },
      "properties": {
        "route_id": 16,
        "name": "Kotlářská 4 → Home (cool)",
        "type": "cool",
        "length_m": 965.7,
        "hazard_count": 0,
        "cool_count": 0,
        "risk_score": 0,
        "shade_score": 0
      }
    }
  ],
  "crs": {
    "type": "name",
    "properties": {
      "name": "EPSG:4326"
    }
  }
}