{"type": "FeatureCollection", "features": [{"type": "Feature", "geometry": {"type": "Point", "coordinates": [16.595613, 49.119427]}, "properties": {"fid": 0, "den": 12, "usmrceno": 1, "druh": "sr\u00e1\u017eka s chodcem", "rok": 2015, "hmotna_sko": 12000, "cas": "0:00:00", "tezce_zran": 0, "pricina": "chodci na vyzna\u010den\u00e9m p\u0159echodu", "x": 16.595613, "y": 49.119427, "mesic": 1, "objectid": 1, "lehce_zran": 0}}, {"type": "Feature", "geometry": {"type": "Point", "coordinates": [16.56333, 49.183286]}, "properties": {"fid": 1, "den": 14, "usmrceno": 1, "druh": "sr\u00e1\u017eka s chodcem", "rok": 2015, "hmotna_sko": 41000, "cas": "0:00:00", "tezce_zran": 0, "pricina": "chodci na vyzna\u010den\u00e9m p\u0159echodu", "x": 16.56333, "y": 49.183286, "mesic": 1, "objectid": 2, "lehce_zran": 0}}, {"type": "Feature", "geometry": {"type": "Point", "coordinates": [16.593486, 49.206006]}, "properties": {"fid": 6, "den": 13, "usmrceno": 0, "druh": "sr\u00e1\u017eka s chodcem", "rok": 2015, "hmotna_sko": 500, "cas": "0:00:00", "tezce_zran": 1, "pricina": "chodci na vyzna\u010den\u00e9m p\u0159echodu", "x": 16.593486, "y": 49.206006, "mesic": 1, "objectid": 7, "lehce_zran": 0}}, {"type": "Feature", "geometry": {"type": "Point", "coordinates": [16.625607, 49.19137]}, "properties": {"fid": 7, "den": 17, "usmrceno": 0, "druh": "sr\u00e1\u017eka s chodcem", "rok": 2015, "hmotna_sko": 0, "cas": "0:00:00", "tezce_zran": 1, "pricina": "nezavin\u011bn\u00e1 \u0159idi\u010dem", "x": 16.625607, "y": 49.19137, "mesic": 1, "objectid": 8, "lehce_zran": 0}}, {"type": "Feature", "geometry": {"type": "Point", "coordinates": [16.626648, 49.169072]}, "properties": {"fid": 9, "den": 9, "usmrceno": 0, "druh": "sr\u00e1\u017eka s chodcem", "rok": 2015, "hmotna_sko": 20000, "cas": "0:00:00", "tezce_zran": 0, "pricina": "chodci na vyzna\u010den\u00e9m p\u0159echodu", "x": 16.626648, "y": 49.169072, "mesic": 1, "objectid": 10, "lehce_zran": 2}}, {"type": "Feature", "geometry": {"type": "Point", "coordinates": [16.676926, 49.203136]}, "properties": {"fid": 10, "den": 5, "usmrceno": 0, "druh": "sr\u00e1\u017eka s jedouc\u00edm nekolejov\u00fdm vozidlem", "rok": 2015, "hmotna_sko": 90000, "cas": "0:00:00", "tezce_zran": 0, "pricina": "proti p\u0159\u00edkazu dopravn\u00ed zna\u010dky dej p\u0159ednost", "x": 16.676926, "y": 49.203136, "mesic": 1, "objectid": 11, "lehce_zran": 2}}, {"type": "Feature", "geometry": {"type": "Point", "coordinates": [16.564239, 49.174189]}, "properties": {"fid": 14, "den": 1, "usmrceno": 0, "druh": "sr\u00e1\u017eka s jedouc\u00edm nekolejov\u00fdm vozidlem", "rok": 2015, "hmotna_sko": 60000, "cas": "0:00:00", "tezce_zran": 0, "pricina": "p\u0159i odbo\u010dov\u00e1n\u00ed vlevo", "x": 16.564239, "y": 49.174189, "mesic": 1, "objectid": 15, "lehce_zran": 1}}, {"type": "Feature", "geometry": {"type": "Point", "coordinates": [16.604284, 49.089141]}, "properties": {"fid": 16, "den": 12, "usmrceno": 0, "druh": "sr\u00e1\u017eka s chodcem", "rok": 2015, "hmotna_sko": 0, "cas": "0:00:00", "tezce_zran": 0, "pricina": "chodci na vyzna\u010den\u00e9m p\u0159echodu", "x": 16.604284, "y": 49.089141, "mesic": 1, "objectid": 17, "lehce_zran": 1}}, {"type": "Feature", "geometry": {"type": "Point", "coordinates": [16.442492, 49.206825]}, "properties": {"fid": 17, "den": 19, "usmrceno": 0, "druh": "sr\u00e1\u017eka s pevnou p\u0159ek\u00e1\u017ekou", "rok": 2015, "hmotna_sko": 110000, "cas": "0:00:00", "tezce_zran": 0, "pricina": "\u0159idi\u010d se pln\u011b nev\u011bnoval \u0159\u00edzen\u00ed vozidla", "x": 16.442492, "y": 49.206825, "mesic": 1, "objectid": 18, "lehce_zran": 1}}, {"type": "Feature", "geometry": {"type": "Point", "coordinates": [16.545632, 49.178847]}, "properties": {"fid": 19, "den": 24, "usmrceno": 0, "druh": "nehoda", "rok": 2015, "hmotna_sko": 10000, "cas": "0:00:00", "tezce_zran": 0, "pricina": "nep\u0159izp\u016fsoben\u00ed rychlosti dopravn\u011b technick\u00e9mu stavu vozovky (zat\u00e1\u010dka, kles\u00e1n\u00ed, stoup\u00e1n\u00ed, \u0161\u00ed\u0159ka vozovky apod.)", "x": 16.545632, "y": 49.178847, "mesic": 1, "objectid": 20, "lehce_zran": 1}}, {"type": "Feature", "geometry": {"type": "Point", "coordinates": [16.580839, 49.170246]}, "properties": {"fid": 20, "den": 23, "usmrceno": 0, "druh": "sr\u00e1\u017eka s chodcem", "rok": 2015, "hmotna_sko": 5000, "cas": "0:00:00", "tezce_zran": 0, "pricina": "\u0159idi\u010d se pln\u011b nev\u011bnoval \u0159\u00edzen\u00ed vozidla", "x": 16.580839, "y": 49.170246, "mesic": 1, "objectid": 21, "lehce_zran": 1}}, {"type": "Feature", "geometry": {"type": "Point", "coordinates": [16.650503, 49.195608]}, "properties": {"fid": 21, "den": 23, "usmrceno": 0, "druh": "sr\u00e1\u017eka s jedouc\u00edm nekolejov\u00fdm vozidlem", "rok": 2015, "hmotna_sko": 170000, "cas": "0:00:00", "tezce_zran": 0, "pricina": "j\u00edzda na \"\u010dervenou\" 3-barevn\u00e9ho semaforu", "x": 16.650503, "y": 49.195608, "mesic": 1, "objectid": 22, "lehce_zran": 1}}, {"type": "Feature", "geometry": {"type": "Point", "coordinates": [16.61155, 49.191051]}, "properties": {"fid": 22, "den": 6, "usmrceno": 0, "druh": "sr\u00e1\u017eka s chodcem", "rok": 2015, "hmotna_sko": 1000, "cas": "0:00:00", "tezce_zran": 0, "pricina": "nezavin\u011bn\u00e1 \u0159idi\u010dem", "x": 16.61155, "y": 49.191051, "mesic": 1, "objectid": 23, "lehce_zran": 1}}, {"type": "Feature", "geometry": {"type": "Point", "coordinates": [16.633795, 49.136197]}, "properties": {"fid": 23, "den": 16, "usmrceno": 0, "druh": "sr\u00e1\u017eka s chodcem", "rok": 2015, "hmotna_sko": 0, "cas": "0:00:00", "tezce_zran": 0, "pricina": "\u0159idi\u010d se pln\u011b nev\u011bnoval \u0159\u00edzen\u00ed vozidla", "x": 16.633795, "y": 49.136197, "mesic": 1, "objectid": 24, "lehce_zran": 1}}, {"type": "Feature", "geometry": {"type": "Point", "coordinates": [16.673328, 49.138753]}, "properties": {"fid": 25, "den": 26, "usmrceno": 0, "druh": "sr\u00e1\u017eka s jedouc\u00edm nekolejov\u00fdm vozidlem", "rok": 2015, "hmotna_sko": 200000, "cas": "0:00:00", "tezce_zran": 0, "pricina": "proti p\u0159\u00edkazu dopravn\u00ed zna\u010dky dej p\u0159ednost", "x": 16.673328, "y": 49.138753, "mesic": 1, "objectid": 26, "lehce_zran": 4}}, {"type": "Feature", "geometry": {"type": "Point", "coordinates": [16.676653, 49.166886]}, "properties": {"fid": 28, "den": 14, "usmrceno": 0, "druh": "sr\u00e1\u017eka s jedouc\u00edm nekolejov\u00fdm vozidlem", "rok": 2015, "hmotna_sko": 110000, "cas": "0:00:00", "tezce_zran": 0, "pricina": "proti p\u0159\u00edkazu dopravn\u00ed zna\u010dky dej p\u0159ednost", "x": 16.676653, "y": 49.166886, "mesic": 1, "objectid": 29, "lehce_zran": 1}}, {"type": "Feature", "geometry": {"type": "Point", "coordinates": [16.573139, 49.218065]}, "properties": {"fid": 29, "den": 10, "usmrceno": 0, "druh": "sr\u00e1\u017eka s jedouc\u00edm nekolejov\u00fdm vozidlem", "rok": 2015, "hmotna_sko": 42000, "cas": "0:00:00", "tezce_zran": 0, "pricina": "\u0159idi\u010d se pln\u011b nev\u011bnoval \u0159\u00edzen\u00ed vozidla", "x": 16.573139, "y": 49.218065, "mesic": 1, "objectid": 30, "lehce_zran": 1}}, {"type": "Feature", "geometry": {"type": "Point", "coordinates": [16.571569, 49.173212]}, "properties": {"fid": 31, "den": 31, "usmrceno": 0, "druh": "sr\u00e1\u017eka s pevnou p\u0159ek\u00e1\u017ekou", "rok": 2015, "hmotna_sko": 100000, "cas": "0:00:00", "tezce_zran": 0, "pricina": "nep\u0159izp\u016fsoben\u00ed rychlosti dopravn\u011b technick\u00e9mu stavu vozovky (zat\u00e1\u010dka, kles\u00e1n\u00ed, stoup\u00e1n\u00ed, \u0161\u00ed\u0159ka vozovky apod.)", "x": 16.571569, "y": 49.173212, "mesic": 1, "objectid": 32, "lehce_zran": 2}}, {"type": "Feature", "geometry": {"type": "Point", "coordinates": [16.509291, 49.218371]}, "properties": {"fid": 34, "den": 17, "usmrceno": 0, "druh": "sr\u00e1\u017eka s chodcem", "rok": 2015, "hmotna_sko": 0, "cas": "0:00:00", "tezce_zran": 0, "pricina": "chodci na vyzna\u010den\u00e9m p\u0159echodu", "x": 16.509291, "y": 49.218371, "mesic": 1, "objectid": 35, "lehce_zran": 1}}, {"type": "Feature", "geometry": {"type": "Point", "coordinates": [16.487441, 49.107454]}, "properties": {"fid": 36, "den": 23, "usmrceno": 0, "druh": "sr\u00e1\u017eka s jedouc\u00edm nekolejov\u00fdm vozidlem", "rok": 2015, "hmotna_sko": 45000, "cas": "0:00:00", "tezce_zran": 0, "pricina": "p\u0159i p\u0159edj\u00ed\u017ed\u011bn\u00ed do\u0161lo k ohro\u017een\u00ed protijedouc\u00edho \u0159idi\u010de vozidla (\u0161patn\u00fd odhad vzd\u00e1lenosti pot\u0159ebn\u00e9 k p\u0159edjet\u00ed apod.)", "x": 16.487441, "y": 49.107454, "mesic": 1, "objectid": 37, "lehce_zran": 1}}, {"type": "Feature", "geometry": {"type": "Point", "coordinates": [16.63906, 49.135303]}, "properties": {"fid": 38, "den": 18, "usmrceno": 0, "druh": "sr\u00e1\u017eka s jedouc\u00edm nekolejov\u00fdm vozidlem", "rok": 2015, "hmotna_sko": 60000, "cas": "0:00:00", "tezce_zran": 0, "pricina": "\u0159idi\u010d se pln\u011b nev\u011bnoval \u0159\u00edzen\u00ed vozidla", "x": 16.63906, "y": 49.135303, "mesic": 1, "objectid": 39, "lehce_zran": 1}}, {"type": "Feature", "geometry": {"type": "Point", "coordinates": [16.549777, 49.165996]}, "properties": {"fid": 39, "den": 7, "usmrceno": 0, "druh": "sr\u00e1\u017eka s jedouc\u00edm nekolejov\u00fdm vozidlem", "rok": 2015, "hmotna_sko": 110000, "cas": "0:00:00", "tezce_zran": 0, "pricina": "nep\u0159izp\u016fsoben\u00ed rychlosti vlastnostem vozidla a n\u00e1kladu", "x": 16.549777, "y": 49.165996, "mesic": 1, "objectid": 40, "lehce_zran": 1}}, {"type": "Feature", "geometry": {"type": "Point", "coordinates": [16.580839, 49.170246]}, "properties": {"fid": 41, "den": 22, "usmrceno": 0, "druh": "sr\u00e1\u017eka s chodcem", "rok": 2015, "hmotna_sko": 5000, "cas": "0:00:00", "tezce_zran": 0, "pricina": "chodci na vyzna\u010den\u00e9m p\u0159echodu", "x": 16.580839, "y": 49.170246, "mesic": 1, "objectid": 42, "lehce_zran": 1}}, {"type": "Feature", "geometry": {"type": "Point", "coordinates": [16.619849, 49.182371]}, "properties": {"fid": 42, "den": 9, "usmrceno": 0, "druh": "sr\u00e1\u017eka s jedouc\u00edm nekolejov\u00fdm vozidlem", "rok": 2015, "hmotna_sko": 170000, "cas": "0:00:00", "tezce_zran": 0, "pricina": "nep\u0159izp\u016fsoben\u00ed rychlosti intenzit\u011b (hustot\u011b) provozu", "x": 16.619849, "y": 49.182371, "mesic": 1, "objectid": 43, "lehce_zran": 1}}, {"type": "Feature", "geometry": {"type": "Point", "coordinates": [16.62595, 49.200004]}, "properties": {"fid": 43, "den": 14, "usmrceno": 0, "druh": "sr\u00e1\u017eka s chodcem", "rok": 2015, "hmotna_sko": 0, "cas": "0:00:00", "tezce_zran": 0, "pricina": "nezavin\u011bn\u00e1 \u0159idi\u010dem", "x": 16.62595, "y": 49.200004, "mesic": 1, "objectid": 44, "lehce_zran": 1}}, {"type": "Feature", "geometry": {"type": "Point", "coordinates": [16.628167, 49.218059]}, "properties": {"fid": 44, "den": 14, "usmrceno": 0, "druh": "sr\u00e1\u017eka s chodcem", "rok": 2015, "hmotna_sko": 0, "cas": "0:00:00", "tezce_zran": 0, "pricina": "chodci na vyzna\u010den\u00e9m p\u0159echodu", "x": 16.628167, "y": 49.218059, "mesic": 1, "objectid": 45, "lehce_zran": 2}}, {"type": "Feature", "geometry": {"type": "Point", "coordinates": [16.691752, 49.180985]}, "properties": {"fid": 45, "den": 19, "usmrceno": 0, "druh": "sr\u00e1\u017eka s chodcem", "rok": 2015, "hmotna_sko": 5000, "cas": "0:00:00", "tezce_zran": 0, "pricina": "\u0159idi\u010d se pln\u011b nev\u011bnoval \u0159\u00edzen\u00ed vozidla", "x": 16.691752, "y": 49.180985, "mesic": 1, "objectid": 46, "lehce_zran": 1}}, {"type": "Feature", "geometry": {"type": "Point", "coordinates": [16.51562, 49.293882]}, "properties": {"fid": 47, "den": 2, "usmrceno": 0, "druh": "nehoda", "rok": 2015, "hmotna_sko": 200000, "cas": "0:00:00", "tezce_zran": 0, "pricina": "nep\u0159izp\u016fsoben\u00ed rychlosti stavu vozovky (n\u00e1led\u00ed, v\u00fdtluky, bl\u00e1to, mokr\u00fd povrch apod.)", "x": 16.51562, "y": 49.293882, "mesic": 1, "objectid": 48, "lehce_zran": 1}}, {"type": "Feature", "geometry": {"type": "Point", "coordinates": [16.61462, 49.19063]}, "properties": {"fid": 49, "den": 15, "usmrceno": 0, "druh": "sr\u00e1\u017eka s tramvaj\u00ed", "rok": 2015, "hmotna_sko": 80000, "cas": "0:00:00", "tezce_zran": 0, "pricina": "p\u0159i odbo\u010dov\u00e1n\u00ed vlevo soub\u011b\u017en\u011b jedouc\u00edmu vozidlu", "x": 16.61462, "y": 49.19063, "mesic": 1, "objectid": 50, "lehce_zran": 1}}, {"type": "Feature", "geometry": {"type": "Point", "coordinates": [16.611114, 49.188717]}, "properties": {"fid": 50, "den": 15, "usmrceno": 0, "druh": "sr\u00e1\u017eka s jedouc\u00edm nekolejov\u00fdm vozidlem", "rok": 2015, "hmotna_sko": 100000, "cas": "0:00:00", "tezce_zran": 0, "pricina": "p\u0159i odbo\u010dov\u00e1n\u00ed vlevo", "x": 16.611114, "y": 49.188717, "mesic": 1, "objectid": 51, "lehce_zran": 1}}, {"type": "Feature", "geometry": {"type": "Point", "coordinates": [16.664354, 49.151387]}, "properties": {"fid": 51, "den": 2, "usmrceno": 0, "druh": "sr\u00e1\u017eka s chodcem", "rok": 2015, "hmotna_sko": 0, "cas": "0:00:00", "tezce_zran": 0, "pricina": "chodci na vyzna\u010den\u00e9m p\u0159echodu", "x": 16.664354, "y": 49.151387, "mesic": 1, "objectid": 52, "lehce_zran": 1}}, {"type": "Feature", "geometry": {"type": "Point", "coordinates": [16.633759, 49.143243]}, "properties": {"fid": 52, "den": 30, "usmrceno": 0, "druh": "sr\u00e1\u017eka s jedouc\u00edm nekolejov\u00fdm vozidlem", "rok": 2015, "hmotna_sko": 80000, "cas": "0:00:00", "tezce_zran": 0, "pricina": "nedodr\u017een\u00ed bezpe\u010dn\u00e9 vzd\u00e1lenosti za vozidlem", "x": 16.633759, "y": 49.143243, "mesic": 1, "objectid": 53, "lehce_zran": 1}}, {"type": "Feature", "geometry": {"type": "Point", "coordinates": [16.609321, 49.190046]}, "properties": {"fid": 53, "den": 19, "usmrceno": 0, "druh": "sr\u00e1\u017eka s chodcem", "rok": 2015, "hmotna_sko": 0, "cas": "0:00:00", "tezce_zran": 0, "pricina": "nezavin\u011bn\u00e1 \u0159idi\u010dem", "x": 16.609321, "y": 49.190046, "mesic": 1, "objectid": 54, "lehce_zran": 1}}, {"type": "Feature", "geometry": {"type": "Point", "coordinates": [16.627246, 49.233517]}, "properties": {"fid": 54, "den": 9, "usmrceno": 0, "druh": "sr\u00e1\u017eka s chodcem", "rok": 2015, "hmotna_sko": 1000, "cas": "0:00:00", "tezce_zran": 0, "pricina": "nezavin\u011bn\u00e1 \u0159idi\u010dem", "x": 16.627246, "y": 49.233517, "mesic": 1, "objectid": 55, "lehce_zran": 1}}, {"type": "Feature", "geometry": {"type": "Point", "coordinates": [16.524292, 49.254052]}, "properties": {"fid": 55, "den": 14, "usmrceno": 0, "druh": "sr\u00e1\u017eka s jedouc\u00edm nekolejov\u00fdm vozidlem", "rok": 2015, "hmotna_sko": 200000, "cas": "0:00:00", "tezce_zran": 0, "pricina": "nedodr\u017een\u00ed bezpe\u010dn\u00e9 vzd\u00e1lenosti za vozidlem", "x": 16.524292, "y": 49.254052, "mesic": 1, "objectid": 56, "lehce_zran": 1}}, {"type": "Feature", "geometry": {"type": "Point", "coordinates": [16.574818, 49.260493]}, "properties": {"fid": 56, "den": 21, "usmrceno": 0, "druh": "sr\u00e1\u017eka s jedouc\u00edm nekolejov\u00fdm vozidlem", "rok": 2015, "hmotna_sko": 210000, "cas": "0:00:00", "tezce_zran": 0, "pricina": "\u0159idi\u010d se pln\u011b nev\u011bnoval \u0159\u00edzen\u00ed vozidla", "x": 16.574818, "y": 49.260493, "mesic": 1, "objectid": 57, "lehce_zran": 2}}, {"type": "Feature", "geometry": {"type": "Point", "coordinates": [16.527153, 49.258611]}, "properties": {"fid": 58, "den": 27, "usmrceno": 0, "druh": "sr\u00e1\u017eka s jedouc\u00edm nekolejov\u00fdm vozidlem", "rok": 2015, "hmotna_sko": 165000, "cas": "0:00:00", "tezce_zran": 0, "pricina": "nep\u0159izp\u016fsoben\u00ed rychlosti stavu vozovky (n\u00e1led\u00ed, v\u00fdtluky, bl\u00e1to, mokr\u00fd povrch apod.)", "x": 16.527153, "y": 49.258611, "mesic": 1, "objectid": 59, "lehce_zran": 1}}, {"type": "Feature", "geometry": {"type": "Point", "coordinates": [16.602414, 49.207576]}, "properties": {"fid": 59, "den": 24, "usmrceno": 0, "druh": "sr\u00e1\u017eka s chodcem", "rok": 2015, "hmotna_sko": 10000, "cas": "0:00:00", "tezce_zran": 0, "pricina": "nezavin\u011bn\u00e1 \u0159idi\u010dem", "x": 16.602414, "y": 49.207576, "mesic": 1, "objectid": 60, "lehce_zran": 1}}, {"type": "Feature", "geometry": {"type": "Point", "coordinates": [16.611683, 49.191037]}, "properties": {"fid": 60, "den": 13, "usmrceno": 0, "druh": "sr\u00e1\u017eka s chodcem", "rok": 2015, "hmotna_sko": 0, "cas": "0:00:00", "tezce_zran": 0, "pricina": "jin\u00e9 ned\u00e1n\u00ed p\u0159ednosti", "x": 16.611683, "y": 49.191037, "mesic": 1, "objectid": 61, "lehce_zran": 1}}, {"type": "Feature", "geometry": {"type": "Point", "coordinates": [16.60383, 49.129946]}, "properties": {"fid": 61, "den": 15, "usmrceno": 0, "druh": "sr\u00e1\u017eka s jedouc\u00edm nekolejov\u00fdm vozidlem", "rok": 2015, "hmotna_sko": 600000, "cas": "0:00:00", "tezce_zran": 0, "pricina": "nedodr\u017een\u00ed bezpe\u010dn\u00e9 vzd\u00e1lenosti za vozidlem", "x": 16.60383, "y": 49.129946, "mesic": 1, "objectid": 62, "lehce_zran": 1}}, {"type": "Feature", "geometry": {"type": "Point", "coordinates": [16.616612, 49.194765]}, "properties": {"fid": 62, "den": 2, "usmrceno": 0, "druh": "sr\u00e1\u017eka s vozidlem zaparkovan\u00fdm, odstaven\u00fdm", "rok": 2015, "hmotna_sko": 260000, "cas": "0:00:00", "tezce_zran": 0, "pricina": "vyh\u00fdb\u00e1n\u00ed bez dostate\u010dn\u00e9ho bo\u010dn\u00edho odstupu (v\u016fle)", "x": 16.616612, "y": 49.194765, "mesic": 1, "objectid": 63, "lehce_zran": 1}}, {"type": "Feature", "geometry": {"type": "Point", "coordinates": [16.618894, 49.199355]}, "properties": {"fid": 63, "den": 3, "usmrceno": 0, "druh": "sr\u00e1\u017eka s chodcem", "rok": 2015, "hmotna_sko": 0, "cas": "0:00:00", "tezce_zran": 0, "pricina": "nezavin\u011bn\u00e1 \u0159idi\u010dem", "x": 16.618894, "y": 49.199355, "mesic": 1, "objectid": 64, "lehce_zran": 1}}, {"type": "Feature", "geometry": {"type": "Point", "coordinates": [16.622968, 49.177348]}, "properties": {"fid": 64, "den": 7, "usmrceno": 0, "druh": "sr\u00e1\u017eka s chodcem", "rok": 2015, "hmotna_sko": 1000, "cas": "0:00:00", "tezce_zran": 0, "pricina": "nespr\u00e1vn\u00e9 ot\u00e1\u010den\u00ed nebo couv\u00e1n\u00ed", "x": 16.622968, "y": 49.177348, "mesic": 1, "objectid": 65, "lehce_zran": 1}}, {"type": "Feature", "geometry": {"type": "Point", "coordinates": [16.632402, 49.163933]}, "properties": {"fid": 65, "den": 1, "usmrceno": 0, "druh": "sr\u00e1\u017eka s pevnou p\u0159ek\u00e1\u017ekou", "rok": 2015, "hmotna_sko": 81000, "cas": "0:00:00", "tezce_zran": 0, "pricina": "nep\u0159izp\u016fsoben\u00ed rychlosti stavu vozovky (n\u00e1led\u00ed, v\u00fdtluky, bl\u00e1to, mokr\u00fd povrch apod.)", "x": 16.632402, "y": 49.163933, "mesic": 1, "objectid": 66, "lehce_zran": 1}}, {"type": "Feature", "geometry": {"type": "Point", "coordinates": [16.493326, 49.220103]}, "properties": {"fid": 67, "den": 6, "usmrceno": 0, "druh": "nehoda", "rok": 2015, "hmotna_sko": 50000, "cas": "0:00:00", "tezce_zran": 0, "pricina": "nep\u0159izp\u016fsoben\u00ed rychlosti stavu vozovky (n\u00e1led\u00ed, v\u00fdtluky, bl\u00e1to, mokr\u00fd povrch apod.)", "x": 16.493326, "y": 49.220103, "mesic": 1, "objectid": 68, "lehce_zran": 1}}, {"type": "Feature", "geometry": {"type": "Point", "coordinates": [16.600646, 49.162727]}, "properties": {"fid": 68, "den": 10, "usmrceno": 0, "druh": "sr\u00e1\u017eka s chodcem", "rok": 2015, "hmotna_sko": 20000, "cas": "0:00:00", "tezce_zran": 0, "pricina": "chodci na vyzna\u010den\u00e9m p\u0159echodu", "x": 16.600646, "y": 49.162727, "mesic": 1, "objectid": 69, "lehce_zran": 1}}, {"type": "Feature", "geometry": {"type": "Point", "coordinates": [16.646547, 49.195256]}, "properties": {"fid": 69, "den": 11, "usmrceno": 0, "druh": "sr\u00e1\u017eka s jedouc\u00edm nekolejov\u00fdm vozidlem", "rok": 2015, "hmotna_sko": 90000, "cas": "0:00:00", "tezce_zran": 0, "pricina": "proti p\u0159\u00edkazu dopravn\u00ed zna\u010dky dej p\u0159ednost", "x": 16.646547, "y": 49.195256, "mesic": 1, "objectid": 70, "lehce_zran": 2}}, {"type": "Feature", "geometry": {"type": "Point", "coordinates": [16.576604, 49.173656]}, "properties": {"fid": 70, "den": 12, "usmrceno": 0, "druh": "sr\u00e1\u017eka s chodcem", "rok": 2015, "hmotna_sko": 0, "cas": "0:00:00", "tezce_zran": 0, "pricina": "chodci na vyzna\u010den\u00e9m p\u0159echodu", "x": 16.576604, "y": 49.173656, "mesic": 1, "objectid": 71, "lehce_zran": 1}}, {"type": "Feature", "geometry": {"type": "Point", "coordinates": [16.622175, 49.174189]}, "properties": {"fid": 74, "den": 31, "usmrceno": 0, "druh": "sr\u00e1\u017eka s chodcem", "rok": 2015, "hmotna_sko": 0, "cas": "0:00:00", "tezce_zran": 0, "pricina": "\u0159idi\u010d se pln\u011b nev\u011bnoval \u0159\u00edzen\u00ed vozidla", "x": 16.622175, "y": 49.174189, "mesic": 1, "objectid": 75, "lehce_zran": 1}}, {"type": "Feature", "geometry": {"type": "Point", "coordinates": [16.617306, 49.186954]}, "properties": {"fid": 75, "den": 29, "usmrceno": 0, "druh": "sr\u00e1\u017eka s jedouc\u00edm nekolejov\u00fdm vozidlem", "rok": 2015, "hmotna_sko": 5000, "cas": "0:00:00", "tezce_zran": 0, "pricina": "\u0159idi\u010d se pln\u011b nev\u011bnoval \u0159\u00edzen\u00ed vozidla", "x": 16.617306, "y": 49.186954, "mesic": 1, "objectid": 76, "lehce_zran": 0}}], "crs": {"type": "name", "properties": {"name": "EPSG:4326"}}}