{"type": "FeatureCollection", "features": [{"type": "Feature", "geometry": {"type": "Point", "coordinates": [16.60833, 49.20639]}, "properties": {"name": "Lu\u017e\u00e1nky Park"}}, {"type": "Feature", "geometry": {"type": "Point", "coordinates": [16.5989139, 49.1942889]}, "properties": {"name": "\u0160pilberk Castle Park"}}, {"type": "Feature", "geometry": {"type": "Point", "coordinates": [16.583499999999997, 49.2045]}, "properties": {"name": "Krav\u00ed Hora Observatory"}}, {"type": "Feature", "geometry": {"type": "Point", "coordinates": [16.60576, 49.190848]}, "properties": {"name": "Denis Gardens"}}, {"type": "Feature", "geometry": {"type": "Point", "coordinates": [16.50806, 49.23833]}, "properties": {"name": "Brno Reservoir"}}], "crs": {"type": "name", "properties": {"name": "EPSG:4326"}}}