{"type": "FeatureCollection", "features": [{"type": "Feature", "geometry": {"type": "Point", "coordinates": [16.59880260000004, 49.18495510000002]}, "properties": {"objectid": 1, "cislo_orientacni_cislo": 8, "cislo_orientacni_hodnota": " ", "cislo_domovni": 8, "adrp_psc": 63900, "ulice_nazev": "Bakalovo n\u00e1b\u0159e\u017e\u00ed", "naz_cobce": "\u0160t\u00fd\u0159ice", "zs": "Bakalovo n\u00e1b\u0159e\u017e\u00ed 8", "kod": 2232, "nazev_cely": "Z\u00e1kladn\u00ed \u0161kola", "datum_exportu": "Sun, 30 Nov 2025 00:00:00 GMT", "GlobalID": "bb931a83-6ac4-442e-8117-9768c25cd349"}}, {"type": "Feature", "geometry": {"type": "Point", "coordinates": [16.619311, 49.19222369999999]}, "properties": {"objectid": 2, "cislo_orientacni_cislo": 21, "cislo_orientacni_hodnota": " ", "cislo_domovni": 99, "adrp_psc": 60200, "ulice_nazev": "K\u0159enov\u00e1", "naz_cobce": "Trnit\u00e1", "zs": "K\u0159enov\u00e1 21", "kod": 2256, "nazev_cely": "Z\u00e1kladn\u00ed \u0161kola a mate\u0159sk\u00e1 \u0161kola", "datum_exportu": "Sun, 30 Nov 2025 00:00:00 GMT", "GlobalID": "ef7bfbfa-856c-4858-a1aa-98c2a518cb20"}}, {"type": "Feature", "geometry": {"type": "Point", "coordinates": [16.62214640000004, 49.21983770000002]}, "properties": {"objectid": 3, "cislo_orientacni_cislo": 2, "cislo_orientacni_hodnota": " ", "cislo_domovni": 577, "adrp_psc": 61300, "ulice_nazev": "Janou\u0161kova", "naz_cobce": "\u010cern\u00e1 Pole", "zs": "Janou\u0161kova 2", "kod": 2248, "nazev_cely": "Z\u00e1kladn\u00ed \u0161kola Brno", "datum_exportu": "Sun, 30 Nov 2025 00:00:00 GMT", "GlobalID": "cee34b81-06e1-4845-884e-fd11aed2cdce"}}, {"type": "Feature", "geometry": {"type": "Point", "coordinates": [16.66089099999996, 49.20346669999999]}, "properties": {"objectid": 4, "cislo_orientacni_cislo": 23, "cislo_orientacni_hodnota": " ", "cislo_domovni": 4164, "adrp_psc": 62800, "ulice_nazev": "Mut\u011bnick\u00e1", "naz_cobce": "\u017didenice", "zs": "Mut\u011bnick\u00e1 23", "kod": 2229, "nazev_cely": "Z\u00e1kladn\u00ed \u0161kola", "datum_exportu": "Sun, 30 Nov 2025 00:00:00 GMT", "GlobalID": "5b2067ff-388b-4e55-9947-7d48342c5cc8"}}, {"type": "Feature", "geometry": {"type": "Point", "coordinates": [16.655755699999965, 49.1900801]}, "properties": {"objectid": 5, "cislo_orientacni_cislo": 24, "cislo_orientacni_hodnota": " ", "cislo_domovni": 3191, "adrp_psc": 63600, "ulice_nazev": "Kr\u00e1sn\u00e9ho", "naz_cobce": "\u017didenice", "zs": "Kr\u00e1sn\u00e9ho 24", "kod": 2254, "nazev_cely": "Z\u00e1kladn\u00ed \u0161kola", "datum_exportu": "Sun, 30 Nov 2025 00:00:00 GMT", "GlobalID": "e2d65d16-2bbf-4775-9d2c-a294f05935a0"}}, {"type": "Feature", "geometry": {"type": "Point", "coordinates": [16.488314199999984, 49.20898560000001]}, "properties": {"objectid": 6, "cislo_orientacni_cislo": 20, "cislo_orientacni_hodnota": "a", "cislo_domovni": 986, "adrp_psc": 64100, "ulice_nazev": "Otev\u0159en\u00e1", "naz_cobce": "\u017deb\u011bt\u00edn", "zs": "Otev\u0159en\u00e1 20a (1.\u20135. ro\u010dn\u00edk)", "kod": 2211, "nazev_cely": "Z\u00e1kladn\u00ed \u0161kola", "datum_exportu": "Sun, 30 Nov 2025 00:00:00 GMT", "GlobalID": "ae369ed0-989f-4094-b836-fba6853688e0"}}, {"type": "Feature", "geometry": {"type": "Point", "coordinates": [16.591317199999988, 49.18008340000001]}, "properties": {"objectid": 7, "cislo_orientacni_cislo": 16, "cislo_orientacni_hodnota": " ", "cislo_domovni": 742, "adrp_psc": 63900, "ulice_nazev": "Horn\u00ed", "naz_cobce": "\u0160t\u00fd\u0159ice", "zs": "Horn\u00ed 16", "kod": 2244, "nazev_cely": "Z\u00e1kladn\u00ed \u0161kola", "datum_exportu": "Sun, 30 Nov 2025 00:00:00 GMT", "GlobalID": "6ddbab33-0c0d-422e-ab60-b6a50f23d1a3"}}, {"type": "Feature", "geometry": {"type": "Point", "coordinates": [16.597934700000035, 49.20576720000005]}, "properties": {"objectid": 8, "cislo_orientacni_cislo": 4, "cislo_orientacni_hodnota": " ", "cislo_domovni": 655, "adrp_psc": 60200, "ulice_nazev": "Kotl\u00e1\u0159sk\u00e1", "naz_cobce": "Veve\u0159\u00ed", "zs": "Kotl\u00e1\u0159sk\u00e1 4", "kod": 2260, "nazev_cely": "Z\u00e1kladn\u00ed \u0161kola a mate\u0159sk\u00e1 \u0161kola", "datum_exportu": "Sun, 30 Nov 2025 00:00:00 GMT", "GlobalID": "550c7311-247e-4bab-b4ab-4f2ef0df22e3"}}, {"type": "Feature", "geometry": {"type": "Point", "coordinates": [16.57161880000001, 49.171010399999986]}, "properties": {"objectid": 9, "cislo_orientacni_cislo": 10, "cislo_orientacni_hodnota": " ", "cislo_domovni": 655, "adrp_psc": 62500, "ulice_nazev": "Vedlej\u0161\u00ed", "naz_cobce": "Bohunice", "zs": "Vedlej\u0161\u00ed 10", "kod": 2222, "nazev_cely": "Z\u00e1kladn\u00ed \u0161kola a Mate\u0159sk\u00e1 \u0161kola", "datum_exportu": "Sun, 30 Nov 2025 00:00:00 GMT", "GlobalID": "ad8a9440-f8d7-4723-9ff6-fe1d1be37868"}}, {"type": "Feature", "geometry": {"type": "Point", "coordinates": [16.622220799999994, 49.21204750000001]}, "properties": {"objectid": 10, "cislo_orientacni_cislo": 29, "cislo_orientacni_hodnota": " ", "cislo_domovni": 173, "adrp_psc": 61300, "ulice_nazev": "Zem\u011bd\u011blsk\u00e1", "naz_cobce": "\u010cern\u00e1 Pole", "zs": "Zem\u011bd\u011blsk\u00e1 29", "kod": 2249, "nazev_cely": "Masarykova z\u00e1kladn\u00ed \u0161kola a Mate\u0159sk\u00e1 \u0161kola", "datum_exportu": "Sun, 30 Nov 2025 00:00:00 GMT", "GlobalID": "ce4f2cdb-3864-472e-a1ab-fc540b10bc2c"}}, {"type": "Feature", "geometry": {"type": "Point", "coordinates": [16.64338769999998, 49.22203020000003]}, "properties": {"objectid": 11, "cislo_orientacni_cislo": 12, "cislo_orientacni_hodnota": " ", "cislo_domovni": 576, "adrp_psc": 61400, "ulice_nazev": "Hamry", "naz_cobce": "Malom\u011b\u0159ice", "zs": "Hamry 12", "kod": 2241, "nazev_cely": "Z\u00e1kladn\u00ed \u0161kola", "datum_exportu": "Sun, 30 Nov 2025 00:00:00 GMT", "GlobalID": "ec33f197-5e56-4012-a759-e011170b883f"}}, {"type": "Feature", "geometry": {"type": "Point", "coordinates": [16.55494249999997, 49.1660048]}, "properties": {"objectid": 12, "cislo_orientacni_cislo": 9, "cislo_orientacni_hodnota": " ", "cislo_domovni": 381, "adrp_psc": 62500, "ulice_nazev": "Bosono\u017esk\u00e1", "naz_cobce": "Star\u00fd L\u00edskovec", "zs": "Bosono\u017esk\u00e1 9", "kod": 2219, "nazev_cely": "Z\u00e1kladn\u00ed \u0161kola", "datum_exportu": "Sun, 30 Nov 2025 00:00:00 GMT", "GlobalID": "43430dad-3e2d-4a01-ad80-12bc58ba3564"}}, {"type": "Feature", "geometry": {"type": "Point", "coordinates": [16.591864200000042, 49.22385719999997]}, "properties": {"objectid": 13, "cislo_orientacni_cislo": 2, "cislo_orientacni_hodnota": " ", "cislo_domovni": 1218, "adrp_psc": 61200, "ulice_nazev": "Slovansk\u00e9 n\u00e1m\u011bst\u00ed", "naz_cobce": "Kr\u00e1lovo Pole", "zs": "Slovansk\u00e9 n\u00e1m. 2", "kod": 2277, "nazev_cely": "Z\u00e1kladn\u00ed \u0161kola", "datum_exportu": "Sun, 30 Nov 2025 00:00:00 GMT", "GlobalID": "79de3770-907e-4edb-b3cd-eb4f7517ed57"}}, {"type": "Feature", "geometry": {"type": "Point", "coordinates": [16.595489500000017, 49.26905090000003]}, "properties": {"objectid": 14, "cislo_orientacni_cislo": 1, "cislo_orientacni_hodnota": " ", "cislo_domovni": 54, "adrp_psc": 62100, "ulice_nazev": "Blanensk\u00e1", "naz_cobce": "Jehnice", "zs": "Blanensk\u00e1 1 (1.\u20135. ro\u010dn\u00edk)", "kod": 2202, "nazev_cely": "Z\u00e1kladn\u00ed \u0161kola a Mate\u0159sk\u00e1 \u0161kola", "datum_exportu": "Sun, 30 Nov 2025 00:00:00 GMT", "GlobalID": "f220b13e-3c6a-460d-99a1-df571c684c07"}}, {"type": "Feature", "geometry": {"type": "Point", "coordinates": [16.579967499999952, 49.202721599999975]}, "properties": {"objectid": 15, "cislo_orientacni_cislo": 3, "cislo_orientacni_hodnota": " ", "cislo_domovni": 375, "adrp_psc": 60200, "ulice_nazev": "n\u00e1m\u011bst\u00ed M\u00edru", "naz_cobce": "Str\u00e1nice", "zs": "n\u00e1m. M\u00edru 3", "kod": 2261, "nazev_cely": "Z\u00e1kladn\u00ed \u0161kola", "datum_exportu": "Sun, 30 Nov 2025 00:00:00 GMT", "GlobalID": "20bdcca5-5567-4816-8741-ce64c4bded6d"}}, {"type": "Feature", "geometry": {"type": "Point", "coordinates": [16.580338099999974, 49.16775449999999]}, "properties": {"objectid": 16, "cislo_orientacni_cislo": 21, "cislo_orientacni_hodnota": " ", "cislo_domovni": 573, "adrp_psc": 62500, "ulice_nazev": "Arm\u00e9nsk\u00e1", "naz_cobce": "Bohunice", "zs": "Arm\u00e9nsk\u00e1 21", "kod": 2296, "nazev_cely": "Z\u00e1kladn\u00ed \u0161kola", "datum_exportu": "Sun, 30 Nov 2025 00:00:00 GMT", "GlobalID": "cccd6cbf-1874-40f4-9ad0-a10fc92e49e4"}}, {"type": "Feature", "geometry": {"type": "Point", "coordinates": [16.626737500000033, 49.23065849999999]}, "properties": {"objectid": 17, "cislo_orientacni_cislo": 9, "cislo_orientacni_hodnota": " ", "cislo_domovni": 21, "adrp_psc": 63800, "ulice_nazev": "Bla\u017ekova", "naz_cobce": "Lesn\u00e1", "zs": "Bla\u017ekova 9", "kod": 2235, "nazev_cely": "Z\u00e1kladn\u00ed \u0161kola a Mate\u0159sk\u00e1 \u0161kola Brno Bla\u017ekova 9", "datum_exportu": "Sun, 30 Nov 2025 00:00:00 GMT", "GlobalID": "8d532c37-b425-4865-aae5-923d2d873f30"}}, {"type": "Feature", "geometry": {"type": "Point", "coordinates": [16.642199299999966, 49.18421200000003]}, "properties": {"objectid": 18, "cislo_orientacni_cislo": 28, "cislo_orientacni_hodnota": " ", "cislo_domovni": 697, "adrp_psc": 61800, "ulice_nazev": "Kneslova", "naz_cobce": "\u010cernovice", "zs": "Kneslova 28", "kod": 2251, "nazev_cely": "Z\u00e1kladn\u00ed \u0161kola", "datum_exportu": "Sun, 30 Nov 2025 00:00:00 GMT", "GlobalID": "f41e237f-50a2-4151-ab51-db6005bae049"}}, {"type": "Feature", "geometry": {"type": "Point", "coordinates": [16.686761800000006, 49.20620440000001]}, "properties": {"objectid": 19, "cislo_orientacni_cislo": 10, "cislo_orientacni_hodnota": " ", "cislo_domovni": 2411, "adrp_psc": 62800, "ulice_nazev": "Novol\u00ed\u0161e\u0148sk\u00e1", "naz_cobce": "L\u00ed\u0161e\u0148", "zs": "Novol\u00ed\u0161e\u0148sk\u00e1 10", "kod": 2223, "nazev_cely": "Z\u00e1kladn\u00ed \u0161kola", "datum_exportu": "Sun, 30 Nov 2025 00:00:00 GMT", "GlobalID": "e20fe287-6f30-45ae-908b-97f0ff5420fe"}}, {"type": "Feature", "geometry": {"type": "Point", "coordinates": [16.560290799999972, 49.17023269999998]}, "properties": {"objectid": 20, "cislo_orientacni_cislo": 27, "cislo_orientacni_hodnota": " ", "cislo_domovni": 269, "adrp_psc": 62500, "ulice_nazev": "Labsk\u00e1", "naz_cobce": "Star\u00fd L\u00edskovec", "zs": "Labsk\u00e1 27", "kod": 2298, "nazev_cely": "Z\u00e1kladn\u00ed \u0161kola", "datum_exportu": "Sun, 30 Nov 2025 00:00:00 GMT", "GlobalID": "50b2cc83-e658-4b95-840c-d69cbda89b26"}}, {"type": "Feature", "geometry": {"type": "Point", "coordinates": [16.592539600000027, 49.20353080000002]}, "properties": {"objectid": 21, "cislo_orientacni_cislo": 55, "cislo_orientacni_hodnota": " ", "cislo_domovni": 423, "adrp_psc": 60200, "ulice_nazev": "\u00davoz", "naz_cobce": "Veve\u0159\u00ed", "zs": "\u00davoz 55", "kod": 2286, "nazev_cely": "Z\u00e1kladn\u00ed \u0161kola", "datum_exportu": "Sun, 30 Nov 2025 00:00:00 GMT", "GlobalID": "9b87f0be-dbd0-4f1d-98fe-7111d2646461"}}, {"type": "Feature", "geometry": {"type": "Point", "coordinates": [16.632268200000027, 49.21161670000003]}, "properties": {"objectid": 22, "cislo_orientacni_cislo": 10, "cislo_orientacni_hodnota": " ", "cislo_domovni": 1536, "adrp_psc": 61400, "ulice_nazev": "n\u00e1m\u011bst\u00ed Republiky", "naz_cobce": "Husovice", "zs": "n\u00e1m. Republiky 10", "kod": 2267, "nazev_cely": "Z\u00e1kladn\u00ed \u0161kola J. A. Komensk\u00e9ho a Mate\u0159sk\u00e1 \u0161kola", "datum_exportu": "Sun, 30 Nov 2025 00:00:00 GMT", "GlobalID": "8b28d1de-4573-4364-9036-bb09eb7524f3"}}, {"type": "Feature", "geometry": {"type": "Point", "coordinates": [16.635432300000037, 49.184037399999994]}, "properties": {"objectid": 23, "cislo_orientacni_cislo": 3, "cislo_orientacni_hodnota": " ", "cislo_domovni": 1020, "adrp_psc": 61800, "ulice_nazev": "\u0158eho\u0159ova", "naz_cobce": "\u010cernovice", "zs": "\u0158eho\u0159ova 3", "kod": 2274, "nazev_cely": "Z\u00e1kladn\u00ed \u0161kola", "datum_exportu": "Sun, 30 Nov 2025 00:00:00 GMT", "GlobalID": "3362dee9-cd07-43c0-a291-8dfd5180fc74"}}, {"type": "Feature", "geometry": {"type": "Point", "coordinates": [16.624684899999963, 49.17733]}, "properties": {"objectid": 24, "cislo_orientacni_cislo": 25, "cislo_orientacni_hodnota": " ", "cislo_domovni": 23, "adrp_psc": 61700, "ulice_nazev": "Tuh\u00e1\u010dkova", "naz_cobce": "Kom\u00e1rov", "zs": "Tuh\u00e1\u010dkova 25", "kod": 2284, "nazev_cely": "Z\u00e1kladn\u00ed \u0161kola Brno", "datum_exportu": "Sun, 30 Nov 2025 00:00:00 GMT", "GlobalID": "abb20869-288c-43c4-8c58-6d87c4fec554"}}, {"type": "Feature", "geometry": {"type": "Point", "coordinates": [16.68830550000003, 49.17666580000002]}, "properties": {"objectid": 25, "cislo_orientacni_cislo": 1, "cislo_orientacni_hodnota": " ", "cislo_domovni": 89, "adrp_psc": 62700, "ulice_nazev": "P\u0159emyslovo n\u00e1m\u011bst\u00ed", "naz_cobce": "Slatina", "zs": "P\u0159emyslovo n\u00e1m. 1", "kod": 2273, "nazev_cely": "Z\u00e1kladn\u00ed \u0161kola", "datum_exportu": "Sun, 30 Nov 2025 00:00:00 GMT", "GlobalID": "1d4337f9-7b46-411a-a880-b7354abeb3bf"}}, {"type": "Feature", "geometry": {"type": "Point", "coordinates": [16.650174500000013, 49.194707599999965]}, "properties": {"objectid": 26, "cislo_orientacni_cislo": 4, "cislo_orientacni_hodnota": " ", "cislo_domovni": 3591, "adrp_psc": 63600, "ulice_nazev": "Kamena\u010dky", "naz_cobce": "\u017didenice", "zs": "Kamena\u010dky 4", "kod": 2250, "nazev_cely": "Masarykova z\u00e1kladn\u00ed \u0161kola", "datum_exportu": "Sun, 30 Nov 2025 00:00:00 GMT", "GlobalID": "853d0fa4-52fc-4e0b-9a85-81443b314d0e"}}, {"type": "Feature", "geometry": {"type": "Point", "coordinates": [16.571157899999974, 49.193958099999996]}, "properties": {"objectid": 27, "cislo_orientacni_cislo": 1, "cislo_orientacni_hodnota": " ", "cislo_domovni": 65, "adrp_psc": 60300, "ulice_nazev": "Hroznov\u00e1", "naz_cobce": "Pis\u00e1rky", "zs": "Hroznov\u00e1 1", "kod": 2245, "nazev_cely": "Z\u00e1kladn\u00ed \u0161kola", "datum_exportu": "Sun, 30 Nov 2025 00:00:00 GMT", "GlobalID": "3c16edd7-281c-4ae8-99e3-9327580099d5"}}, {"type": "Feature", "geometry": {"type": "Point", "coordinates": [16.515033799999983, 49.2182425]}, "properties": {"objectid": 28, "cislo_orientacni_cislo": 1, "cislo_orientacni_hodnota": " ", "cislo_domovni": 1066, "adrp_psc": 63500, "ulice_nazev": "Vejrostova", "naz_cobce": "Bystrc", "zs": "Vejrostova 1", "kod": 2226, "nazev_cely": "Z\u00e1kladn\u00ed \u0161kola", "datum_exportu": "Sun, 30 Nov 2025 00:00:00 GMT", "GlobalID": "4f8f0130-6b90-4d2a-9f9d-7982b30f6bd4"}}, {"type": "Feature", "geometry": {"type": "Point", "coordinates": [16.541826800000035, 49.19262739999999]}, "properties": {"objectid": 29, "cislo_orientacni_cislo": 2, "cislo_orientacni_hodnota": " ", "cislo_domovni": 575, "adrp_psc": 62300, "ulice_nazev": "Chalabalova", "naz_cobce": "Kohoutovice", "zs": "Chalabalova 2", "kod": 2294, "nazev_cely": "Z\u00e1kladn\u00ed \u0161kola a Mate\u0159sk\u00e1 \u0161kola", "datum_exportu": "Sun, 30 Nov 2025 00:00:00 GMT", "GlobalID": "049ca8c7-432e-4a46-9fef-f6b494eb6a7c"}}, {"type": "Feature", "geometry": {"type": "Point", "coordinates": [16.598646399999968, 49.22476160000003]}, "properties": {"objectid": 30, "cislo_orientacni_cislo": 22, "cislo_orientacni_hodnota": " ", "cislo_domovni": 661, "adrp_psc": 61200, "ulice_nazev": "Ko\u0161inova", "naz_cobce": "Kr\u00e1lovo Pole", "zs": "Ko\u0161inova 22", "kod": 2252, "nazev_cely": "Z\u00e1kladn\u00ed \u0161kola", "datum_exportu": "Sun, 30 Nov 2025 00:00:00 GMT", "GlobalID": "2b4d0413-e7b4-4228-9c3b-780524f75efc"}}, {"type": "Feature", "geometry": {"type": "Point", "coordinates": [16.611820300000048, 49.16241200000002]}, "properties": {"objectid": 31, "cislo_orientacni_cislo": 28, "cislo_orientacni_hodnota": " ", "cislo_domovni": 496, "adrp_psc": 61900, "ulice_nazev": "Bedn\u00e1\u0159ova", "naz_cobce": "Horn\u00ed Her\u0161pice", "zs": "Bedn\u00e1\u0159ova 28", "kod": 2234, "nazev_cely": "Z\u00e1kladn\u00ed \u0161kola", "datum_exportu": "Sun, 30 Nov 2025 00:00:00 GMT", "GlobalID": "b3ae16d5-ce08-4e43-9e9c-49edae109e89"}}, {"type": "Feature", "geometry": {"type": "Point", "coordinates": [16.675460500000028, 49.20516600000004]}, "properties": {"objectid": 32, "cislo_orientacni_cislo": 11, "cislo_orientacni_hodnota": " ", "cislo_domovni": 2360, "adrp_psc": 62800, "ulice_nazev": "Masarova", "naz_cobce": "L\u00ed\u0161e\u0148", "zs": "Masarova 11", "kod": 2221, "nazev_cely": "Z\u00e1kladn\u00ed \u0161kola Brno,Masarova 11, p\u0159\u00edsp\u011bvkov\u00e1 organizace", "datum_exportu": "Sun, 30 Nov 2025 00:00:00 GMT", "GlobalID": "66bcd593-da35-4f80-8d9c-c7c0307585ca"}}, {"type": "Feature", "geometry": {"type": "Point", "coordinates": [16.643822099999973, 49.2019757]}, "properties": {"objectid": 33, "cislo_orientacni_cislo": 3, "cislo_orientacni_hodnota": " ", "cislo_domovni": 1282, "adrp_psc": 61500, "ulice_nazev": "Gajdo\u0161ova", "naz_cobce": "\u017didenice", "zs": "Gajdo\u0161ova 3", "kod": 2239, "nazev_cely": "Z\u00e1kladn\u00ed \u0161kola", "datum_exportu": "Sun, 30 Nov 2025 00:00:00 GMT", "GlobalID": "d375d556-959e-466b-ad7d-769f0d77bd4d"}}, {"type": "Feature", "geometry": {"type": "Point", "coordinates": [16.558194399999962, 49.221112499999975]}, "properties": {"objectid": 34, "cislo_orientacni_cislo": 70, "cislo_orientacni_hodnota": " ", "cislo_domovni": 718, "adrp_psc": 62400, "ulice_nazev": "Pastviny", "naz_cobce": "Kom\u00edn", "zs": "Pastviny 70", "kod": 2297, "nazev_cely": "Z\u00e1kladn\u00ed \u0161kola a Mate\u0159sk\u00e1 \u0161kola", "datum_exportu": "Sun, 30 Nov 2025 00:00:00 GMT", "GlobalID": "d5b5457a-f007-41f9-a153-2f1a3e0f9afc"}}, {"type": "Feature", "geometry": {"type": "Point", "coordinates": [16.60075550000004, 49.187190200000025]}, "properties": {"objectid": 35, "cislo_orientacni_cislo": 30, "cislo_orientacni_hodnota": "b", "cislo_domovni": 513, "adrp_psc": 60300, "ulice_nazev": "K\u0159\u00eddlovick\u00e1", "naz_cobce": "Star\u00e9 Brno", "zs": "K\u0159\u00eddlovick\u00e1 30b", "kod": 2257, "nazev_cely": "Z\u00e1kladn\u00ed \u0161kola a mate\u0159sk\u00e1 \u0161kola", "datum_exportu": "Sun, 30 Nov 2025 00:00:00 GMT", "GlobalID": "55661058-1542-416d-8e96-23273a1a173e"}}, {"type": "Feature", "geometry": {"type": "Point", "coordinates": [16.624157500000003, 49.205322000000045]}, "properties": {"objectid": 36, "cislo_orientacni_cislo": 37, "cislo_orientacni_hodnota": " ", "cislo_domovni": 932, "adrp_psc": 61300, "ulice_nazev": "Merhautova", "naz_cobce": "\u010cern\u00e1 Pole", "zs": "Merhautova 37", "kod": 2264, "nazev_cely": "Z\u00e1kladn\u00ed \u0161kola a Mate\u0159sk\u00e1 \u0161kola", "datum_exportu": "Sun, 30 Nov 2025 00:00:00 GMT", "GlobalID": "6f1d84ac-36f2-464e-854d-0c4c60c2c973"}}, {"type": "Feature", "geometry": {"type": "Point", "coordinates": [16.523492000000005, 49.217748100000044]}, "properties": {"objectid": 37, "cislo_orientacni_cislo": 77, "cislo_orientacni_hodnota": " ", "cislo_domovni": 920, "adrp_psc": 63500, "ulice_nazev": "La\u0161t\u016fvkova", "naz_cobce": "Bystrc", "zs": "La\u0161t\u016fvkova 77", "kod": 2299, "nazev_cely": "Z\u00e1kladn\u00ed \u0161kola Brno", "datum_exportu": "Sun, 30 Nov 2025 00:00:00 GMT", "GlobalID": "e27a9c92-6ba3-451a-93fe-fa89676337c2"}}, {"type": "Feature", "geometry": {"type": "Point", "coordinates": [16.577730099999965, 49.2386983]}, "properties": {"objectid": 38, "cislo_orientacni_cislo": 35, "cislo_orientacni_hodnota": " ", "cislo_domovni": 81, "adrp_psc": 62100, "ulice_nazev": "Hudcova", "naz_cobce": "Medl\u00e1nky", "zs": "Hudcova 35", "kod": 2208, "nazev_cely": "Z\u00e1kladn\u00ed \u0161kola Brno, Hudcova 35, p\u0159\u00edsp\u011bvkov\u00e1 organizace", "datum_exportu": "Sun, 30 Nov 2025 00:00:00 GMT", "GlobalID": "a9a67600-cc82-4a53-82fd-bad62b5b6be6"}}, {"type": "Feature", "geometry": {"type": "Point", "coordinates": [16.68545730000001, 49.17958920000002]}, "properties": {"objectid": 39, "cislo_orientacni_cislo": 2, "cislo_orientacni_hodnota": " ", "cislo_domovni": 1089, "adrp_psc": 62700, "ulice_nazev": "Jihomoravsk\u00e9 n\u00e1m\u011bst\u00ed", "naz_cobce": "Slatina", "zs": "Jihomoravsk\u00e9 n\u00e1m. 2", "kod": 2225, "nazev_cely": "Z\u00e1kladn\u00ed \u0161kola a mate\u0159sk\u00e1 \u0161kola Brno, Jihomoravsk\u00e9 n\u00e1m. 2", "datum_exportu": "Sun, 30 Nov 2025 00:00:00 GMT", "GlobalID": "5db540fb-7bc2-4c1c-90d7-8f20629245c9"}}, {"type": "Feature", "geometry": {"type": "Point", "coordinates": [16.582228600000022, 49.21023890000002]}, "properties": {"objectid": 40, "cislo_orientacni_cislo": 36, "cislo_orientacni_hodnota": " ", "cislo_domovni": 371, "adrp_psc": 61600, "ulice_nazev": "Sirotkova", "naz_cobce": "\u017dabov\u0159esky", "zs": "Sirotkova 36", "kod": 2276, "nazev_cely": "Z\u00e1kladn\u00ed \u0161kola", "datum_exportu": "Sun, 30 Nov 2025 00:00:00 GMT", "GlobalID": "935aaadd-4942-48ac-9cf4-d305bc0bc790"}}, {"type": "Feature", "geometry": {"type": "Point", "coordinates": [16.663740800000028, 49.2012466]}, "properties": {"objectid": 41, "cislo_orientacni_cislo": 10, "cislo_orientacni_hodnota": " ", "cislo_domovni": 4339, "adrp_psc": 62800, "ulice_nazev": "\u010cejkovick\u00e1", "naz_cobce": "\u017didenice", "zs": "\u010cejkovick\u00e1 10", "kod": 2217, "nazev_cely": "Z\u00e1kladn\u00ed \u0161kola Brno", "datum_exportu": "Sun, 30 Nov 2025 00:00:00 GMT", "GlobalID": "fd2b28fe-9992-4690-99a6-aca0d81e7c10"}}, {"type": "Feature", "geometry": {"type": "Point", "coordinates": [16.622370800000006, 49.255552700000045]}, "properties": {"objectid": 42, "cislo_orientacni_cislo": 49, "cislo_orientacni_hodnota": " ", "cislo_domovni": 72, "adrp_psc": 64400, "ulice_nazev": "Zeiberlichova", "naz_cobce": "Sob\u011b\u0161ice", "zs": "Zeiberlichova 49 (1.-5. ro\u010dn\u00edk)", "kod": 2216, "nazev_cely": "Z\u00e1kladn\u00ed \u0161kola a Mate\u0159sk\u00e1 \u0161kola", "datum_exportu": "Sun, 30 Nov 2025 00:00:00 GMT", "GlobalID": "ec6e6354-9aeb-4c63-928a-fa8edaa103bf"}}, {"type": "Feature", "geometry": {"type": "Point", "coordinates": [16.55880719999998, 49.17755919999998]}, "properties": {"objectid": 43, "cislo_orientacni_cislo": 5, "cislo_orientacni_hodnota": " ", "cislo_domovni": 368, "adrp_psc": 63400, "ulice_nazev": "Kam\u00ednky", "naz_cobce": "Nov\u00fd L\u00edskovec", "zs": "Kam\u00ednky 5", "kod": 2228, "nazev_cely": "Z\u00e1kladn\u00ed \u0161kola", "datum_exportu": "Sun, 30 Nov 2025 00:00:00 GMT", "GlobalID": "f0c15e44-7d1e-47c3-bfd7-b75660bac292"}}, {"type": "Feature", "geometry": {"type": "Point", "coordinates": [16.553699999999974, 49.174586500000025]}, "properties": {"objectid": 44, "cislo_orientacni_cislo": 9, "cislo_orientacni_hodnota": " ", "cislo_domovni": 438, "adrp_psc": 63400, "ulice_nazev": "Sv\u00e1\u017en\u00e1", "naz_cobce": "Nov\u00fd L\u00edskovec", "zs": "Sv\u00e1\u017en\u00e1 9", "kod": 2230, "nazev_cely": "Z\u00e1kladn\u00ed \u0161kola", "datum_exportu": "Sun, 30 Nov 2025 00:00:00 GMT", "GlobalID": "d75ffd9d-e37f-4e3b-aa01-bfb2b00d4c8c"}}, {"type": "Feature", "geometry": {"type": "Point", "coordinates": [16.58514999999999, 49.248930300000026]}, "properties": {"objectid": 45, "cislo_orientacni_cislo": 13, "cislo_orientacni_hodnota": " ", "cislo_domovni": 1493, "adrp_psc": 62100, "ulice_nazev": "Hor\u00e1ck\u00e9 n\u00e1m\u011bst\u00ed", "naz_cobce": "\u0158e\u010dkovice", "zs": "Hor\u00e1ck\u00e9 n\u00e1m. 13", "kod": 2293, "nazev_cely": "Z\u00e1kladn\u00ed \u0161kola", "datum_exportu": "Sun, 30 Nov 2025 00:00:00 GMT", "GlobalID": "caa66e5a-7685-4941-b740-ae5d417ebcc9"}}, {"type": "Feature", "geometry": {"type": "Point", "coordinates": [16.589707000000036, 49.21352390000001]}, "properties": {"objectid": 46, "cislo_orientacni_cislo": 1, "cislo_orientacni_hodnota": " ", "cislo_domovni": 1960, "adrp_psc": 61600, "ulice_nazev": "Jana Bab\u00e1ka", "naz_cobce": "\u017dabov\u0159esky", "zs": "Jana Bab\u00e1ka 1", "kod": 2259, "nazev_cely": "Z\u00e1kladn\u00ed \u0161kola", "datum_exportu": "Sun, 30 Nov 2025 00:00:00 GMT", "GlobalID": "e0c62b6c-ef95-470e-9d00-949be0df22f4"}}, {"type": "Feature", "geometry": {"type": "Point", "coordinates": [16.632482699999983, 49.19980730000001]}, "properties": {"objectid": 47, "cislo_orientacni_cislo": 38, "cislo_orientacni_hodnota": " ", "cislo_domovni": 734, "adrp_psc": 61500, "ulice_nazev": "Kuldova", "naz_cobce": "Z\u00e1brdovice", "zs": "Kuldova 38", "kod": 2258, "nazev_cely": "Tyr\u0161ova z\u00e1kladn\u00ed \u0161kola", "datum_exportu": "Sun, 30 Nov 2025 00:00:00 GMT", "GlobalID": "ca94452a-8660-483a-9531-4f2fe71a774a"}}, {"type": "Feature", "geometry": {"type": "Point", "coordinates": [16.66213139999996, 49.151472100000014]}, "properties": {"objectid": 48, "cislo_orientacni_cislo": 21, "cislo_orientacni_hodnota": " ", "cislo_domovni": 459, "adrp_psc": 62000, "ulice_nazev": "M\u011b\u0161\u0165ansk\u00e1", "naz_cobce": "Brn\u011bnsk\u00e9 Ivanovice", "zs": "M\u011b\u0161\u0165ansk\u00e1 21", "kod": 2265, "nazev_cely": "Z\u00e1kladn\u00ed \u0161kola", "datum_exportu": "Sun, 30 Nov 2025 00:00:00 GMT", "GlobalID": "41754cec-7bf7-4fde-a93f-f628f25b36c7"}}, {"type": "Feature", "geometry": {"type": "Point", "coordinates": [16.605407100000004, 49.20240309999998]}, "properties": {"objectid": 49, "cislo_orientacni_cislo": 3, "cislo_orientacni_hodnota": " ", "cislo_domovni": 550, "adrp_psc": 60200, "ulice_nazev": "Anton\u00ednsk\u00e1", "naz_cobce": "Veve\u0159\u00ed", "zs": "Anton\u00ednsk\u00e1 3", "kod": 2231, "nazev_cely": "Z\u00e1kladn\u00ed \u0161kola", "datum_exportu": "Sun, 30 Nov 2025 00:00:00 GMT", "GlobalID": "3fe05507-b95b-4df9-b525-505e12e092c9"}}, {"type": "Feature", "geometry": {"type": "Point", "coordinates": [16.623256300000026, 49.22837209999999]}, "properties": {"objectid": 50, "cislo_orientacni_cislo": 14, "cislo_orientacni_hodnota": " ", "cislo_domovni": 808, "adrp_psc": 63800, "ulice_nazev": "Mil\u00e9nova", "naz_cobce": "Lesn\u00e1", "zs": "Mil\u00e9nova 14", "kod": 2240, "nazev_cely": "Z\u00e1kladn\u00ed \u0161kola a Mate\u0159sk\u00e1 \u0161kola Brno, Mil\u00e9nova 14", "datum_exportu": "Sun, 30 Nov 2025 00:00:00 GMT", "GlobalID": "2b185c1d-03c7-4d4e-b75f-6e5895bb292d"}}, {"type": "Feature", "geometry": {"type": "Point", "coordinates": [16.55345830000002, 49.206502]}, "properties": {"objectid": 51, "cislo_orientacni_cislo": 2, "cislo_orientacni_hodnota": " ", "cislo_domovni": 647, "adrp_psc": 63700, "ulice_nazev": "Jasanov\u00e1", "naz_cobce": "Jundrov", "zs": "Jasanov\u00e1 2", "kod": 2292, "nazev_cely": "Z\u00e1kladn\u00ed \u0161kola", "datum_exportu": "Sun, 30 Nov 2025 00:00:00 GMT", "GlobalID": "6d3b03e9-23dc-449b-b14e-001f63534e98"}}, {"type": "Feature", "geometry": {"type": "Point", "coordinates": [16.67843230000003, 49.213139199999986]}, "properties": {"objectid": 52, "cislo_orientacni_cislo": 1, "cislo_orientacni_hodnota": " ", "cislo_domovni": 2170, "adrp_psc": 62800, "ulice_nazev": "Horn\u00edkova", "naz_cobce": "L\u00ed\u0161e\u0148", "zs": "Horn\u00edkova 1", "kod": 2233, "nazev_cely": "Z\u00e1kladn\u00ed \u0161kola a mate\u0159sk\u00e1 \u0161kola", "datum_exportu": "Sun, 30 Nov 2025 00:00:00 GMT", "GlobalID": "5c5dc677-31a0-4933-bc0f-fbb7fdc58201"}}, {"type": "Feature", "geometry": {"type": "Point", "coordinates": [16.58790600000002, 49.242147999999986]}, "properties": {"objectid": 53, "cislo_orientacni_cislo": 21, "cislo_orientacni_hodnota": " ", "cislo_domovni": 1887, "adrp_psc": 62100, "ulice_nazev": "Novom\u011bstsk\u00e1", "naz_cobce": "\u0158e\u010dkovice", "zs": "Novom\u011bstsk\u00e1 21", "kod": 2218, "nazev_cely": "Z\u00e1kladn\u00ed \u0161kola", "datum_exportu": "Sun, 30 Nov 2025 00:00:00 GMT", "GlobalID": "4b06a0e0-c73e-4f0c-ab26-5ea420512800"}}, {"type": "Feature", "geometry": {"type": "Point", "coordinates": [16.568038200000046, 49.16445120000001]}, "properties": {"objectid": 54, "cislo_orientacni_cislo": 10, "cislo_orientacni_hodnota": " ", "cislo_domovni": 497, "adrp_psc": 62500, "ulice_nazev": "Eli\u0161ky P\u0159emyslovny", "naz_cobce": "Star\u00fd L\u00edskovec", "zs": "Eli\u0161ky P\u0159emyslovny 10", "kod": 2238, "nazev_cely": "Z\u00e1kladn\u00ed \u0161kola a Mate\u0159sk\u00e1 \u0161kola", "datum_exportu": "Sun, 30 Nov 2025 00:00:00 GMT", "GlobalID": "dbf0a158-8342-4dbc-b6b1-e4510f3fa118"}}, {"type": "Feature", "geometry": {"type": "Point", "coordinates": [16.604181100000027, 49.21121150000001]}, "properties": {"objectid": 55, "cislo_orientacni_cislo": 14, "cislo_orientacni_hodnota": " ", "cislo_domovni": 327, "adrp_psc": 60200, "ulice_nazev": "Sta\u0148kova", "naz_cobce": "Ponava", "zs": "Sta\u0148kova 14", "kod": 2278, "nazev_cely": "Z\u00e1kladn\u00ed \u0161kola a Mate\u0159sk\u00e1 \u0161kola", "datum_exportu": "Sun, 30 Nov 2025 00:00:00 GMT", "GlobalID": "cbc875a2-a15a-4e3d-9197-dcda44443a4b"}}, {"type": "Feature", "geometry": {"type": "Point", "coordinates": [16.655573000000036, 49.13459069999999]}, "properties": {"objectid": 56, "cislo_orientacni_cislo": 3, "cislo_orientacni_hodnota": " ", "cislo_domovni": 388, "adrp_psc": 64300, "ulice_nazev": "Jana Broskvy", "naz_cobce": "Chrlice", "zs": "Jana Broskvy 3", "kod": 2262, "nazev_cely": "Z\u00e1kladn\u00ed \u0161kola a Mate\u0159sk\u00e1 \u0161kola", "datum_exportu": "Sun, 30 Nov 2025 00:00:00 GMT", "GlobalID": "77c67638-6dd2-41e9-b5a6-f1396bb980c4"}}, {"type": "Feature", "geometry": {"type": "Point", "coordinates": [16.60365630000001, 49.19592780000003]}, "properties": {"objectid": 57, "cislo_orientacni_cislo": 17, "cislo_orientacni_hodnota": " ", "cislo_domovni": 219, "adrp_psc": 60200, "ulice_nazev": "Husova", "naz_cobce": "Brno-m\u011bsto", "zs": "Husova 17", "kod": 2246, "nazev_cely": "Z\u00e1kladn\u00ed \u0161kola a Mate\u0159sk\u00e1 \u0161kola", "datum_exportu": "Sun, 30 Nov 2025 00:00:00 GMT", "GlobalID": "95eff907-a86a-4a73-ad32-55ba5270fe49"}}, {"type": "Feature", "geometry": {"type": "Point", "coordinates": [16.58499009999997, 49.231553300000044]}, "properties": {"objectid": 58, "cislo_orientacni_cislo": 19, "cislo_orientacni_hodnota": " ", "cislo_domovni": 2499, "adrp_psc": 61200, "ulice_nazev": "Her\u010d\u00edkova", "naz_cobce": "Kr\u00e1lovo Pole", "zs": "Her\u010d\u00edkova 19", "kod": 2291, "nazev_cely": "Z\u00e1kladn\u00ed \u0161kola", "datum_exportu": "Sun, 30 Nov 2025 00:00:00 GMT", "GlobalID": "155d67cc-6d74-4a3e-a9aa-34df80253f31"}}, {"type": "Feature", "geometry": {"type": "Point", "coordinates": [16.526838800000032, 49.22776170000003]}, "properties": {"objectid": 59, "cislo_orientacni_cislo": 32, "cislo_orientacni_hodnota": " ", "cislo_domovni": 611, "adrp_psc": 63500, "ulice_nazev": "Heyrovsk\u00e9ho", "naz_cobce": "Bystrc", "zs": "Heyrovsk\u00e9ho 32", "kod": 2295, "nazev_cely": "Z\u00e1kladn\u00ed \u0161kola", "datum_exportu": "Sun, 30 Nov 2025 00:00:00 GMT", "GlobalID": "b2044d64-13b4-4f76-8adf-2695ab6c8184"}}, {"type": "Feature", "geometry": {"type": "Point", "coordinates": [16.580454100000047, 49.21535080000004]}, "properties": {"objectid": 60, "cislo_orientacni_cislo": 7, "cislo_orientacni_hodnota": " ", "cislo_domovni": 2571, "adrp_psc": 61600, "ulice_nazev": "n\u00e1m\u011bst\u00ed Svornosti", "naz_cobce": "\u017dabov\u0159esky", "zs": "n\u00e1m. Svornosti 7", "kod": 2268, "nazev_cely": "Z\u00e1kladn\u00ed a Mate\u0159sk\u00e1 \u0161kola Brno, n\u00e1m\u011bst\u00ed Svornosti 7, p\u0159\u00edsp\u011bvkov\u00e1 organizace", "datum_exportu": "Sun, 30 Nov 2025 00:00:00 GMT", "GlobalID": "0bf45768-21ea-47c4-a8ea-84c30071681e"}}, {"type": "Feature", "geometry": {"type": "Point", "coordinates": [16.61396730000002, 49.202383299999994]}, "properties": {"objectid": 61, "cislo_orientacni_cislo": 22, "cislo_orientacni_hodnota": " ", "cislo_domovni": 1902, "adrp_psc": 60200, "ulice_nazev": "n\u00e1m\u011bst\u00ed 28. \u0159\u00edjna", "naz_cobce": "\u010cern\u00e1 Pole", "zs": "n\u00e1m. 28. \u0159\u00edjna 22", "kod": 2279, "nazev_cely": "Z\u00e1kladn\u00ed \u0161kola a mate\u0159sk\u00e1 \u0161kola", "datum_exportu": "Sun, 30 Nov 2025 00:00:00 GMT", "GlobalID": "4cc81514-a776-4263-9135-ea2b45496f5c"}}, {"type": "Feature", "geometry": {"type": "Point", "coordinates": [16.527937900000026, 49.19091880000002]}, "properties": {"objectid": 62, "cislo_orientacni_cislo": 16, "cislo_orientacni_hodnota": " ", "cislo_domovni": 576, "adrp_psc": 62300, "ulice_nazev": "Pavlovsk\u00e1", "naz_cobce": "Kohoutovice", "zs": "Pavlovsk\u00e1 16", "kod": 2220, "nazev_cely": "Z\u00e1kladn\u00ed a mate\u0159sk\u00e1 \u0161kola Brno", "datum_exportu": "Sun, 30 Nov 2025 00:00:00 GMT", "GlobalID": "49187559-e6b8-46a7-ad41-b4bde8a28fc0"}}, {"type": "Feature", "geometry": {"type": "Point", "coordinates": [16.53002560000003, 49.175909799999985]}, "properties": {"objectid": 63, "cislo_orientacni_cislo": 44, "cislo_orientacni_hodnota": " ", "cislo_domovni": 100, "adrp_psc": 64200, "ulice_nazev": "Bosono\u017esk\u00e9 n\u00e1m\u011bst\u00ed", "naz_cobce": "Bosonohy", "zs": "Bosono\u017esk\u00e9 n\u00e1m. 44 (1.\u20135. ro\u010dn\u00edk)", "kod": 2203, "nazev_cely": "Z\u00e1kladn\u00ed \u0161kola a Mate\u0159sk\u00e1 \u0161kola Brno, Bosono\u017esk\u00e9 n\u00e1m. 44, p\u0159\u00edsp\u011bvkov\u00e1 organizace", "datum_exportu": "Sun, 30 Nov 2025 00:00:00 GMT", "GlobalID": "69871bf9-1e4a-4b29-b251-c8ff17206aa0"}}, {"type": "Feature", "geometry": {"type": "Point", "coordinates": [16.69465940000002, 49.20204160000001]}, "properties": {"objectid": 64, "cislo_orientacni_cislo": 1, "cislo_orientacni_hodnota": " ", "cislo_domovni": 1461, "adrp_psc": 62800, "ulice_nazev": "Holzova", "naz_cobce": "L\u00ed\u0161e\u0148", "zs": "Holzova 1", "kod": 2243, "nazev_cely": "Z\u00e1kladn\u00ed \u0161kola", "datum_exportu": "Sun, 30 Nov 2025 00:00:00 GMT", "GlobalID": "0c43275f-b345-47c5-9330-247bd2de1a02"}}], "crs": {"type": "name", "properties": {"name": "EPSG:4326"}}}