{
  "type": "FeatureCollection",
  "features": [
    {
      "type": "Feature",
      "geometry": {
        "type": "LineString",
        "coordinates": [
          [
            16.59950136708861,
            49.184399443037975
          ],
          [
            16.60290972151899,
            49.187244265822784
          ],
          [
            16.60290972151899,
            49.19008908860759
          ],
          [
            16.60290972151899,
            49.19293391139241
          ],
          [
            16.60290972151899,
            49.19577873417722
          ],
          [
            16.606318075949368,
            49.198623556962026
          ],
          [
            16.606318075949368,
            49.201468379746835
          ]
        ]
      },
      "properties": {
        "route_id": 1,
        "name": "Bakalovo nábřeží 8 → Home (safe)",
        "type": "safe",
        "length_m": 2068.8,
        "hazard_count": 0,
        "cool_count": 0,
        "risk_score": 0,
        "shade_score": 0
      }
    },
    {
      "type": "Feature",
      "geometry": {
        "type": "LineString",
        "coordinates": [
          [
            16.59950136708861,
            49.184399443037975
          ],
          [
            16.60290972151899,
            49.187244265822784
          ],
          [
            16.606318075949368,
            49.19008908860759
          ],
          [
            16.606318075949368,
            49.19293391139241
          ],
          [
            16.60290972151899,
            49.19577873417722
          ],
          [
            16.606318075949368,
            49.198623556962026
          ],
          [
            16.606318075949368,
            49.201468379746835
          ]
        ]
      },
      "properties": {
        "route_id": 2,
        "name": "Bakalovo nábřeží 8 → Home (cool)",
        "type": "cool",
        "length_m": 2239.7,
        "hazard_count": 0,
        "cool_count": 1,
        "risk_score": 0,
        "shade_score": 1
      }
    },
    {
      "type": "Feature",
      "geometry": {
        "type": "LineString",
        "coordinates": [
          [
            16.61995149367089,
            49.19293391139241
          ],
          [
            16.623359848101266,
            49.19577873417722
          ],
          [
            16.626768202531647,
            49.19577873417722
          ],
          [
            16.630176556962027,
            49.19577873417722
          ],
          [
            16.633584911392408,
            49.198623556962026
          ],
          [
            16.633584911392408,
            49.201468379746835
          ],
          [
            16.630176556962027,
            49.204313202531644
          ],
          [
            16.626768202531647,
            49.20715802531646
          ],
          [
            16.623359848101266,
            49.20715802531646
          ],
          [
            16.61995149367089,
            49.20715802531646
          ],
          [
            16.61654313924051,
            49.204313202531644
          ],
          [
            16.61313478481013,
            49.204313202531644
          ],
          [
            16.609726430379748,
            49.204313202531644
          ],
          [
            16.606318075949368,
            49.201468379746835
          ]
        ]
      },
      "properties": {
        "route_id": 3,
        "name": "Křenová 21 → Home (safe)",
        "type": "safe",
        "length_m": 4212.5,
        "hazard_count": 0,
        "cool_count": 0,
        "risk_score": 0,
        "shade_score": 0
      }
    },
    {
      "type": "Feature",
      "geometry": {
        "type": "LineString",
        "coordinates": [
          [
            16.61995149367089,
            49.19293391139241
          ],
          [
            16.623359848101266,
            49.19577873417722
          ],
          [
            16.626768202531647,
            49.19577873417722
          ],
          [
            16.630176556962027,
            49.19577873417722
          ],
          [
            16.633584911392408,
            49.198623556962026
          ],
          [
            16.633584911392408,
            49.201468379746835
          ],
          [
            16.630176556962027,
            49.204313202531644
          ],
          [
            16.626768202531647,
            49.20715802531646
          ],
          [
            16.623359848101266,
            49.20715802531646
          ],
          [
            16.61995149367089,
            49.20715802531646
          ],
          [
            16.61654313924051,
            49.204313202531644
          ],
          [
            16.61313478481013,
            49.204313202531644
          ],
          [
            16.609726430379748,
            49.204313202531644
          ],
          [
            16.606318075949368,
            49.201468379746835
          ]
        ]
      },
      "properties": {
        "route_id": 4,
        "name": "Křenová 21 → Home (cool)",
        "type": "cool",
        "length_m": 4212.5,
        "hazard_count": 0,
        "cool_count": 0,
        "risk_score": 0,
        "shade_score": 0
      }
    },
    {
      "type": "Feature",
      "geometry": {
        "type": "LineString",
        "coordinates": [
          [
            16.623359848101266,
            49.218537316455695
          ],
          [
            16.61995149367089,
            49.215692493670886
          ],
          [
            16.61654313924051,
            49.21284767088608
          ],
          [
            16.61313478481013,
            49.21000284810127
          ],
          [
            16.609726430379748,
            49.20715802531646
          ],
          [
            16.606318075949368,
            49.204313202531644
          ],
          [
            16.606318075949368,
            49.201468379746835
          ]
        ]
      },
      "properties": {
        "route_id": 5,
        "name": "Janouškova 2 → Home (safe)",
        "type": "safe",
        "length_m": 2324.8,
        "hazard_count": 0,
        "cool_count": 1,
        "risk_score": 0,
        "shade_score": 1
      }
    },
    {
      "type": "Feature",
      "geometry": {
        "type": "LineString",
        "coordinates": [
          [
            16.623359848101266,
            49.218537316455695
          ],
          [
            16.61995149367089,
            49.215692493670886
          ],
          [
            16.61654313924051,
            49.21284767088608
          ],
          [
            16.61313478481013,
            49.21000284810127
          ],
          [
            16.609726430379748,
            49.20715802531646
          ],
          [
            16.606318075949368,
            49.204313202531644
          ],
          [
            16.606318075949368,
            49.201468379746835
          ]
        ]
      },
      "properties": {
        "route_id": 6,
        "name": "Janouškova 2 → Home (cool)",
        "type": "cool",
        "length_m": 2324.8,
        "hazard_count": 0,
        "cool_count": 1,
        "risk_score": 0,
        "shade_score": 1
      }
    }
  ],
  "crs": {
    "type": "name",
    "properties": {
      "name": "EPSG:4326"
    }
  }
}